{"type":"FeatureCollection","features":[{"type":"Feature","id":0,"geometry":{"type":"Point","coordinates":[13.0432934,47.802200300000003]},"properties":{"FID":0,"F_id":"node/266329642","addr_city":"Salzburg","addr_house":"5-7","addr_postc":"5020","addr_stree":"Schwarzstraße","building":" ","building_l":" ","internet_a":"wlan","internet_1":" ","name":"Hotel Sacher","phone":" ","roof_shape":" ","stars":"5","tourism":"hotel","website":" ","operator":" ","rooms":" ","wheelchair":"yes","wheelcha_1":" ","addr_count":"AT","beds":" ","breakfast":" ","check_date":" ","contact_em":" ","contact_fa":" ","contact_ph":" ","contact_we":" ","cuisine":" ","kitchen_ho":" ","opening_ho":" ","outdoor_se":" ","smoking":" ","toilets_wh":" ","wikidata":"Q1631024","note":" ","at_bev_add":" ","email":" ","fax":" ","government":" ","office":" ","brand":" ","roof_level":" ","survey_dat":" ","amenity":" ","brand_wiki":" ","brand_wi_1":" ","compressed":" ","fuel_diese":" ","fuel_octan":" ","fuel_oct_1":" ","shop":" ","building_1":" ","source":" ","addr_hou_1":" ","bett_and_b":" ","bettundbik":" ","air_condit":" ","capacity":" ","dog":" ","fee":" ","lit":" ","power_supp":" ","sanitary_d":" ","sanitary_1":" ","sanitary_2":" ","shower":" ","tents":" ","toilets":" ","water_poin":" ","level":" ","wikimedia_":" ","wikipedia":"de:Hotel Sacher Salzburg","check_da_1":" ","payment_cr":" ","organic":" ","internet_2":" ","bar":" ","payment_ca":" ","payment_de":" ","reservatio":" ","diet_veget":" ","indoor_sea":" ","name_en":" ","website_me":" ","internet_3":" ","branch":" ","cash_withd":" ","diet_halal":" ","diet_koshe":" ","toilets_ac":" ","payment_ma":" ","payment_vi":" ","contact_in":" ","ref":" ","atm":" ","descriptio":" ","drive_thro":" ","contact__1":" ","contact_mo":" ","int_name":" ","guest_hous":" ","check_da_2":" ","diet_vegan":" ","highchair":" ","takeaway":" ","official_n":" ","leisure":" ","operator_w":" ","operator_1":" ","alt_name":" ","clothes":" ","payment__1":" ","name_zh":" ","ele":" ","lgbtq_crui":" ","lgbtq_men":" ","shop_1":" ","indoor":" ","payment_co":" ","payment_no":" ","vending":" ","charging_s":" ","diet_glute":" ","diet_local":" ","internet_4":" ","image":" ","operator_t":" "}},{"type":"Feature","id":1,"geometry":{"type":"Point","coordinates":[13.0438317,47.801864199999997]},"properties":{"FID":1,"F_id":"node/268243640","addr_city":"Salzburg","addr_house":"3","addr_postc":"5020","addr_stree":"Schwarzstraße","building":" ","building_l":" ","internet_a":"wlan","internet_1":" ","name":"Cafe Bazar","phone":"+43 662 874278","roof_shape":" ","stars":" ","tourism":" ","website":"https://www.cafe-bazar.at/","operator":" ","rooms":" ","wheelchair":"limited","wheelcha_1":" ","addr_count":" ","beds":" ","breakfast":" ","check_date":" ","contact_em":" ","contact_fa":" ","contact_ph":" ","contact_we":" ","cuisine":"regional;coffee_shop","kitchen_ho":" ","opening_ho":"Mo-Sa 07:30-19:30; Su 09:00-18:00","outdoor_se":" ","smoking":" ","toilets_wh":"yes","wikidata":"Q1025574","note":" ","at_bev_add":" ","email":"info@cafe-bazar.at","fax":" ","government":" ","office":" ","brand":" ","roof_level":" ","survey_dat":" ","amenity":"cafe","brand_wiki":" ","brand_wi_1":" ","compressed":" ","fuel_diese":" ","fuel_octan":" ","fuel_oct_1":" ","shop":" ","building_1":" ","source":" ","addr_hou_1":" ","bett_and_b":" ","bettundbik":" ","air_condit":" ","capacity":" ","dog":" ","fee":" ","lit":" ","power_supp":" ","sanitary_d":" ","sanitary_1":" ","sanitary_2":" ","shower":" ","tents":" ","toilets":" ","water_poin":" ","level":" ","wikimedia_":" ","wikipedia":"de:Café Bazar (Salzburg)","check_da_1":"2023-07-22","payment_cr":"no","organic":" ","internet_2":" ","bar":" ","payment_ca":" ","payment_de":" ","reservatio":" ","diet_veget":" ","indoor_sea":" ","name_en":" ","website_me":" ","internet_3":" ","branch":" ","cash_withd":" ","diet_halal":" ","diet_koshe":" ","toilets_ac":" ","payment_ma":" ","payment_vi":" ","contact_in":" ","ref":" ","atm":" ","descriptio":" ","drive_thro":" ","contact__1":" ","contact_mo":" ","int_name":" ","guest_hous":" ","check_da_2":" ","diet_vegan":" ","highchair":" ","takeaway":" ","official_n":" ","leisure":" ","operator_w":" ","operator_1":" ","alt_name":" ","clothes":" ","payment__1":" ","name_zh":" ","ele":" ","lgbtq_crui":" ","lgbtq_men":" ","shop_1":" ","indoor":" ","payment_co":" ","payment_no":" ","vending":" ","charging_s":" ","diet_glute":" ","diet_local":" ","internet_4":" ","image":" ","operator_t":" "}},{"type":"Feature","id":2,"geometry":{"type":"Point","coordinates":[13.014923,47.808475600000001]},"properties":{"FID":2,"F_id":"node/294230449","addr_city":" ","addr_house":" ","addr_postc":" ","addr_stree":" ","building":" ","building_l":" ","internet_a":"wlan","internet_1":"no","name":"Hofer","phone":" ","roof_shape":" ","stars":" ","tourism":" ","website":" ","operator":"Hofer KG","rooms":" ","wheelchair":"yes","wheelcha_1":" ","addr_count":" ","beds":" ","breakfast":" ","check_date":"2024-11-27","contact_em":" ","contact_fa":" ","contact_ph":" ","contact_we":" ","cuisine":" ","kitchen_ho":" ","opening_ho":"Mo-Fr 07:40-20:00, Sa 07:40-18:00","outdoor_se":" ","smoking":" ","toilets_wh":" ","wikidata":" ","note":" ","at_bev_add":" ","email":" ","fax":" ","government":" ","office":" ","brand":"Hofer","roof_level":" ","survey_dat":" ","amenity":" ","brand_wiki":"Q15815751","brand_wi_1":"de:Hofer KG","compressed":" ","fuel_diese":" ","fuel_octan":" ","fuel_oct_1":" ","shop":"supermarket","building_1":" ","source":" ","addr_hou_1":" ","bett_and_b":" ","bettundbik":" ","air_condit":" ","capacity":" ","dog":" ","fee":" ","lit":" ","power_supp":" ","sanitary_d":" ","sanitary_1":" ","sanitary_2":" ","shower":" ","tents":" ","toilets":" ","water_poin":" ","level":" ","wikimedia_":" ","wikipedia":" ","check_da_1":"2024-11-27","payment_cr":" ","organic":"yes","internet_2":" ","bar":" ","payment_ca":" ","payment_de":" ","reservatio":" ","diet_veget":" ","indoor_sea":" ","name_en":" ","website_me":" ","internet_3":" ","branch":" ","cash_withd":" ","diet_halal":" ","diet_koshe":" ","toilets_ac":" ","payment_ma":" ","payment_vi":" ","contact_in":" ","ref":" ","atm":" ","descriptio":" ","drive_thro":" ","contact__1":" ","contact_mo":" ","int_name":" ","guest_hous":" ","check_da_2":" ","diet_vegan":" ","highchair":" ","takeaway":" ","official_n":" ","leisure":" ","operator_w":" ","operator_1":" ","alt_name":" ","clothes":" ","payment__1":" ","name_zh":" ","ele":" ","lgbtq_crui":" ","lgbtq_men":" ","shop_1":" ","indoor":" ","payment_co":" ","payment_no":" ","vending":" ","charging_s":" ","diet_glute":" ","diet_local":" ","internet_4":" ","image":" ","operator_t":" "}},{"type":"Feature","id":3,"geometry":{"type":"Point","coordinates":[13.047953700000001,47.808278899999998]},"properties":{"FID":3,"F_id":"node/418206238","addr_city":" ","addr_house":" ","addr_postc":" ","addr_stree":" ","building":" ","building_l":" ","internet_a":"wlan","internet_1":"no","name":" ","phone":" ","roof_shape":" ","stars":" ","tourism":" ","website":" ","operator":" ","rooms":" ","wheelchair":" ","wheelcha_1":" ","addr_count":" ","beds":" ","breakfast":" ","check_date":" ","contact_em":" ","contact_fa":" ","contact_ph":" ","contact_we":" ","cuisine":" ","kitchen_ho":" ","opening_ho":" ","outdoor_se":" ","smoking":" ","toilets_wh":" ","wikidata":" ","note":" ","at_bev_add":" ","email":" ","fax":" ","government":" ","office":" ","brand":" ","roof_level":" ","survey_dat":" ","amenity":"internet_access","brand_wiki":" ","brand_wi_1":" ","compressed":" ","fuel_diese":" ","fuel_octan":" ","fuel_oct_1":" ","shop":" ","building_1":" ","source":" ","addr_hou_1":" ","bett_and_b":" ","bettundbik":" ","air_condit":" ","capacity":" ","dog":" ","fee":" ","lit":" ","power_supp":" ","sanitary_d":" ","sanitary_1":" ","sanitary_2":" ","shower":" ","tents":" ","toilets":" ","water_poin":" ","level":" ","wikimedia_":" ","wikipedia":" ","check_da_1":" ","payment_cr":" ","organic":" ","internet_2":"FON","bar":" ","payment_ca":" ","payment_de":" ","reservatio":" ","diet_veget":" ","indoor_sea":" ","name_en":" ","website_me":" ","internet_3":" ","branch":" ","cash_withd":" ","diet_halal":" ","diet_koshe":" ","toilets_ac":" ","payment_ma":" ","payment_vi":" ","contact_in":" ","ref":" ","atm":" ","descriptio":" ","drive_thro":" ","contact__1":" ","contact_mo":" ","int_name":" ","guest_hous":" ","check_da_2":" ","diet_vegan":" ","highchair":" ","takeaway":" ","official_n":" ","leisure":" ","operator_w":" ","operator_1":" ","alt_name":" ","clothes":" ","payment__1":" ","name_zh":" ","ele":" ","lgbtq_crui":" ","lgbtq_men":" ","shop_1":" ","indoor":" ","payment_co":" ","payment_no":" ","vending":" ","charging_s":" ","diet_glute":" ","diet_local":" ","internet_4":" ","image":" ","operator_t":" "}},{"type":"Feature","id":4,"geometry":{"type":"Point","coordinates":[13.0210449,47.793734999999998]},"properties":{"FID":4,"F_id":"node/448637176","addr_city":"Salzburg","addr_house":"9","addr_postc":"5020","addr_stree":"Bräuhausstraße","building":" ","building_l":" ","internet_a":"wlan","internet_1":" ","name":"Stiegl-Bräustüberl","phone":" ","roof_shape":" ","stars":" ","tourism":" ","website":" ","operator":" ","rooms":" ","wheelchair":"yes","wheelcha_1":" ","addr_count":"AT","beds":" ","breakfast":" ","check_date":"2023-08-21","contact_em":" ","contact_fa":" ","contact_ph":" ","contact_we":"https://www.brauwelt.at/gastronomie/braeustueberl/","cuisine":" ","kitchen_ho":" ","opening_ho":"Mo-Su 10:00-24:00","outdoor_se":" ","smoking":" ","toilets_wh":" ","wikidata":" ","note":" ","at_bev_add":" ","email":" ","fax":" ","government":" ","office":" ","brand":" ","roof_level":" ","survey_dat":" ","amenity":"restaurant","brand_wiki":" ","brand_wi_1":" ","compressed":" ","fuel_diese":" ","fuel_octan":" ","fuel_oct_1":" ","shop":" ","building_1":" ","source":" ","addr_hou_1":" ","bett_and_b":" ","bettundbik":" ","air_condit":" ","capacity":"200","dog":" ","fee":"no","lit":" ","power_supp":" ","sanitary_d":" ","sanitary_1":" ","sanitary_2":" ","shower":" ","tents":" ","toilets":" ","water_poin":" ","level":" ","wikimedia_":" ","wikipedia":" ","check_da_1":" ","payment_cr":" ","organic":" ","internet_2":" ","bar":" ","payment_ca":" ","payment_de":" ","reservatio":" ","diet_veget":" ","indoor_sea":" ","name_en":" ","website_me":" ","internet_3":" ","branch":" ","cash_withd":" ","diet_halal":" ","diet_koshe":" ","toilets_ac":" ","payment_ma":" ","payment_vi":" ","contact_in":" ","ref":" ","atm":" ","descriptio":" ","drive_thro":" ","contact__1":" ","contact_mo":" ","int_name":" ","guest_hous":" ","check_da_2":" ","diet_vegan":" ","highchair":" ","takeaway":" ","official_n":" ","leisure":" ","operator_w":" ","operator_1":" ","alt_name":" ","clothes":" ","payment__1":" ","name_zh":" ","ele":" ","lgbtq_crui":" ","lgbtq_men":" ","shop_1":" ","indoor":" ","payment_co":" ","payment_no":" ","vending":" ","charging_s":" ","diet_glute":" ","diet_local":" ","internet_4":" ","image":" ","operator_t":" "}},{"type":"Feature","id":5,"geometry":{"type":"Point","coordinates":[13.0473511,47.808368399999999]},"properties":{"FID":5,"F_id":"node/619716227","addr_city":"Salzburg","addr_house":"9","addr_postc":"5020","addr_stree":"Paracelsusstraße","building":" ","building_l":" ","internet_a":"wlan","internet_1":" ","name":"Yoho Youth Hostel","phone":"+43 (0)662 879-649","roof_shape":" ","stars":" ","tourism":"hostel","website":"https://www.yoho.at/","operator":" ","rooms":" ","wheelchair":"yes","wheelcha_1":" ","addr_count":" ","beds":" ","breakfast":" ","check_date":" ","contact_em":" ","contact_fa":" ","contact_ph":" ","contact_we":" ","cuisine":" ","kitchen_ho":" ","opening_ho":" ","outdoor_se":" ","smoking":" ","toilets_wh":" ","wikidata":" ","note":" ","at_bev_add":" ","email":"office@yoho.at","fax":" ","government":" ","office":" ","brand":" ","roof_level":" ","survey_dat":" ","amenity":" ","brand_wiki":" ","brand_wi_1":" ","compressed":" ","fuel_diese":" ","fuel_octan":" ","fuel_oct_1":" ","shop":" ","building_1":" ","source":" ","addr_hou_1":" ","bett_and_b":" ","bettundbik":" ","air_condit":" ","capacity":" ","dog":" ","fee":" ","lit":" ","power_supp":" ","sanitary_d":" ","sanitary_1":" ","sanitary_2":" ","shower":" ","tents":" ","toilets":" ","water_poin":" ","level":" ","wikimedia_":" ","wikipedia":" ","check_da_1":" ","payment_cr":" ","organic":" ","internet_2":" ","bar":" ","payment_ca":" ","payment_de":" ","reservatio":" ","diet_veget":" ","indoor_sea":" ","name_en":" ","website_me":" ","internet_3":" ","branch":" ","cash_withd":" ","diet_halal":" ","diet_koshe":" ","toilets_ac":" ","payment_ma":" ","payment_vi":" ","contact_in":" ","ref":" ","atm":" ","descriptio":" ","drive_thro":" ","contact__1":" ","contact_mo":" ","int_name":" ","guest_hous":" ","check_da_2":" ","diet_vegan":" ","highchair":" ","takeaway":" ","official_n":" ","leisure":" ","operator_w":" ","operator_1":" ","alt_name":" ","clothes":" ","payment__1":" ","name_zh":" ","ele":" ","lgbtq_crui":" ","lgbtq_men":" ","shop_1":" ","indoor":" ","payment_co":" ","payment_no":" ","vending":" ","charging_s":" ","diet_glute":" ","diet_local":" ","internet_4":" ","image":" ","operator_t":" "}},{"type":"Feature","id":6,"geometry":{"type":"Point","coordinates":[13.044210899999999,47.819919400000003]},"properties":{"FID":6,"F_id":"node/676214236","addr_city":" ","addr_house":" ","addr_postc":" ","addr_stree":" ","building":" ","building_l":" ","internet_a":"wlan","internet_1":" ","name":"Itzlinger-Hof","phone":" ","roof_shape":" ","stars":" ","tourism":"hotel","website":"https://www.itzlinger-hof.at/","operator":" ","rooms":" ","wheelchair":"no","wheelcha_1":" ","addr_count":" ","beds":" ","breakfast":"yes","check_date":" ","contact_em":"check-in@itzlinger-hof.at","contact_fa":" ","contact_ph":"+43 662 451210","contact_we":" ","cuisine":" ","kitchen_ho":" ","opening_ho":" ","outdoor_se":" ","smoking":"separated","toilets_wh":" ","wikidata":" ","note":" ","at_bev_add":" ","email":" ","fax":" ","government":" ","office":" ","brand":" ","roof_level":" ","survey_dat":" ","amenity":" ","brand_wiki":" ","brand_wi_1":" ","compressed":" ","fuel_diese":" ","fuel_octan":" ","fuel_oct_1":" ","shop":" ","building_1":" ","source":" ","addr_hou_1":" ","bett_and_b":" ","bettundbik":" ","air_condit":" ","capacity":" ","dog":" ","fee":" ","lit":" ","power_supp":" ","sanitary_d":" ","sanitary_1":" ","sanitary_2":" ","shower":" ","tents":" ","toilets":" ","water_poin":" ","level":" ","wikimedia_":" ","wikipedia":" ","check_da_1":" ","payment_cr":" ","organic":" ","internet_2":" ","bar":" ","payment_ca":" ","payment_de":" ","reservatio":" ","diet_veget":" ","indoor_sea":" ","name_en":" ","website_me":" ","internet_3":" ","branch":" ","cash_withd":" ","diet_halal":" ","diet_koshe":" ","toilets_ac":" ","payment_ma":" ","payment_vi":" ","contact_in":" ","ref":" ","atm":" ","descriptio":" ","drive_thro":" ","contact__1":" ","contact_mo":" ","int_name":" ","guest_hous":" ","check_da_2":" ","diet_vegan":" ","highchair":" ","takeaway":" ","official_n":" ","leisure":" ","operator_w":" ","operator_1":" ","alt_name":" ","clothes":" ","payment__1":" ","name_zh":" ","ele":" ","lgbtq_crui":" ","lgbtq_men":" ","shop_1":" ","indoor":" ","payment_co":" ","payment_no":" ","vending":" ","charging_s":" ","diet_glute":" ","diet_local":" ","internet_4":" ","image":" ","operator_t":" "}},{"type":"Feature","id":7,"geometry":{"type":"Point","coordinates":[13.049705400000001,47.806847599999998]},"properties":{"FID":7,"F_id":"node/690524637","addr_city":"Salzburg","addr_house":"61","addr_postc":"5020","addr_stree":"Auerspergstraße","building":" ","building_l":" ","internet_a":"wlan","internet_1":" ","name":"Boutique Hotel Auersperg Salzburg","phone":"+43 662 889440","roof_shape":" ","stars":"4","tourism":"hotel","website":"https://www.auersperg.at/de/","operator":" ","rooms":" ","wheelchair":"no","wheelcha_1":" ","addr_count":"AT","beds":" ","breakfast":" ","check_date":" ","contact_em":" ","contact_fa":" ","contact_ph":" ","contact_we":" ","cuisine":" ","kitchen_ho":" ","opening_ho":" ","outdoor_se":" ","smoking":" ","toilets_wh":" ","wikidata":" ","note":" ","at_bev_add":" ","email":"info@auersperg.at","fax":"+43 662 88944-55","government":" ","office":" ","brand":" ","roof_level":" ","survey_dat":" ","amenity":" ","brand_wiki":" ","brand_wi_1":" ","compressed":" ","fuel_diese":" ","fuel_octan":" ","fuel_oct_1":" ","shop":" ","building_1":" ","source":" ","addr_hou_1":" ","bett_and_b":" ","bettundbik":" ","air_condit":" ","capacity":" ","dog":" ","fee":" ","lit":" ","power_supp":" ","sanitary_d":" ","sanitary_1":" ","sanitary_2":" ","shower":" ","tents":" ","toilets":" ","water_poin":" ","level":" ","wikimedia_":" ","wikipedia":" ","check_da_1":" ","payment_cr":" ","organic":" ","internet_2":" ","bar":"yes","payment_ca":" ","payment_de":" ","reservatio":" ","diet_veget":" ","indoor_sea":" ","name_en":" ","website_me":" ","internet_3":" ","branch":" ","cash_withd":" ","diet_halal":" ","diet_koshe":" ","toilets_ac":" ","payment_ma":" ","payment_vi":" ","contact_in":" ","ref":" ","atm":" ","descriptio":" ","drive_thro":" ","contact__1":" ","contact_mo":" ","int_name":" ","guest_hous":" ","check_da_2":" ","diet_vegan":" ","highchair":" ","takeaway":" ","official_n":" ","leisure":" ","operator_w":" ","operator_1":" ","alt_name":" ","clothes":" ","payment__1":" ","name_zh":" ","ele":" ","lgbtq_crui":" ","lgbtq_men":" ","shop_1":" ","indoor":" ","payment_co":" ","payment_no":" ","vending":" ","charging_s":" ","diet_glute":" ","diet_local":" ","internet_4":" ","image":" ","operator_t":" "}},{"type":"Feature","id":8,"geometry":{"type":"Point","coordinates":[13.053797400000001,47.808596999999999]},"properties":{"FID":8,"F_id":"node/690526709","addr_city":"Salzburg","addr_house":"20","addr_postc":"5020","addr_stree":"Sterneckstraße","building":" ","building_l":" ","internet_a":"wlan","internet_1":"no","name":"Dorint City-Hotel Salzburg","phone":" ","roof_shape":" ","stars":"4","tourism":"hotel","website":" ","operator":" ","rooms":" ","wheelchair":"yes","wheelcha_1":" ","addr_count":"AT","beds":" ","breakfast":" ","check_date":"2025-05-25","contact_em":" ","contact_fa":" ","contact_ph":" ","contact_we":" ","cuisine":" ","kitchen_ho":" ","opening_ho":"24/7","outdoor_se":" ","smoking":" ","toilets_wh":" ","wikidata":" ","note":" ","at_bev_add":" ","email":" ","fax":" ","government":" ","office":" ","brand":"Dorint","roof_level":" ","survey_dat":" ","amenity":" ","brand_wiki":"Q1700015","brand_wi_1":" ","compressed":" ","fuel_diese":" ","fuel_octan":" ","fuel_oct_1":" ","shop":" ","building_1":" ","source":" ","addr_hou_1":" ","bett_and_b":" ","bettundbik":" ","air_condit":" ","capacity":" ","dog":" ","fee":" ","lit":" ","power_supp":" ","sanitary_d":" ","sanitary_1":" ","sanitary_2":" ","shower":" ","tents":" ","toilets":" ","water_poin":" ","level":" ","wikimedia_":" ","wikipedia":" ","check_da_1":" ","payment_cr":" ","organic":" ","internet_2":" ","bar":" ","payment_ca":" ","payment_de":" ","reservatio":" ","diet_veget":" ","indoor_sea":" ","name_en":" ","website_me":" ","internet_3":" ","branch":" ","cash_withd":" ","diet_halal":" ","diet_koshe":" ","toilets_ac":" ","payment_ma":" ","payment_vi":" ","contact_in":" ","ref":" ","atm":" ","descriptio":" ","drive_thro":" ","contact__1":" ","contact_mo":" ","int_name":" ","guest_hous":" ","check_da_2":" ","diet_vegan":" ","highchair":" ","takeaway":" ","official_n":" ","leisure":" ","operator_w":" ","operator_1":" ","alt_name":" ","clothes":" ","payment__1":" ","name_zh":" ","ele":" ","lgbtq_crui":" ","lgbtq_men":" ","shop_1":" ","indoor":" ","payment_co":" ","payment_no":" ","vending":" ","charging_s":" ","diet_glute":" ","diet_local":" ","internet_4":" ","image":" ","operator_t":" "}},{"type":"Feature","id":9,"geometry":{"type":"Point","coordinates":[13.0424436,47.808205399999999]},"properties":{"FID":9,"F_id":"node/694146750","addr_city":"Salzburg","addr_house":"20","addr_postc":"5020","addr_stree":"Markus-Sittikus-Straße","building":" ","building_l":" ","internet_a":"wlan","internet_1":"customers","name":"Sittikus","phone":"+43 662 87 11 21","roof_shape":" ","stars":"4","tourism":"hotel","website":"https://www.markus-sittikus.at","operator":" ","rooms":" ","wheelchair":"no","wheelcha_1":" ","addr_count":"AT","beds":" ","breakfast":" ","check_date":"2024-04-21","contact_em":" ","contact_fa":" ","contact_ph":" ","contact_we":" ","cuisine":" ","kitchen_ho":" ","opening_ho":" ","outdoor_se":" ","smoking":"outside","toilets_wh":" ","wikidata":" ","note":" ","at_bev_add":" ","email":" ","fax":" ","government":" ","office":" ","brand":" ","roof_level":" ","survey_dat":" ","amenity":" ","brand_wiki":" ","brand_wi_1":" ","compressed":" ","fuel_diese":" ","fuel_octan":" ","fuel_oct_1":" ","shop":" ","building_1":" ","source":"survey","addr_hou_1":" ","bett_and_b":" ","bettundbik":" ","air_condit":" ","capacity":" ","dog":" ","fee":" ","lit":" ","power_supp":" ","sanitary_d":" ","sanitary_1":" ","sanitary_2":" ","shower":" ","tents":" ","toilets":" ","water_poin":" ","level":" ","wikimedia_":" ","wikipedia":" ","check_da_1":" ","payment_cr":"yes","organic":" ","internet_2":" ","bar":"yes","payment_ca":"yes","payment_de":"yes","reservatio":"yes","diet_veget":" ","indoor_sea":" ","name_en":" ","website_me":" ","internet_3":" ","branch":" ","cash_withd":" ","diet_halal":" ","diet_koshe":" ","toilets_ac":" ","payment_ma":" ","payment_vi":" ","contact_in":" ","ref":" ","atm":" ","descriptio":" ","drive_thro":" ","contact__1":" ","contact_mo":" ","int_name":" ","guest_hous":" ","check_da_2":" ","diet_vegan":" ","highchair":" ","takeaway":" ","official_n":" ","leisure":" ","operator_w":" ","operator_1":" ","alt_name":" ","clothes":" ","payment__1":" ","name_zh":" ","ele":" ","lgbtq_crui":" ","lgbtq_men":" ","shop_1":" ","indoor":" ","payment_co":" ","payment_no":" ","vending":" ","charging_s":" ","diet_glute":" ","diet_local":" ","internet_4":" ","image":" ","operator_t":" "}},{"type":"Feature","id":10,"geometry":{"type":"Point","coordinates":[13.042944800000001,47.800621900000003]},"properties":{"FID":10,"F_id":"node/814204082","addr_city":"Salzburg","addr_house":"15","addr_postc":"5020","addr_stree":"Griesgasse","building":" ","building_l":" ","internet_a":"wlan","internet_1":"no","name":"Burgerista","phone":"+43 50 666 666","roof_shape":" ","stars":" ","tourism":" ","website":"https://www.burgerista.com/","operator":" ","rooms":" ","wheelchair":"yes","wheelcha_1":" ","addr_count":"AT","beds":" ","breakfast":" ","check_date":" ","contact_em":" ","contact_fa":" ","contact_ph":" ","contact_we":" ","cuisine":"burger","kitchen_ho":" ","opening_ho":"Mo-Th 11:00-20:00; Fr-Su 11:00-22:00","outdoor_se":"no","smoking":" ","toilets_wh":"no","wikidata":" ","note":" ","at_bev_add":" ","email":" ","fax":" ","government":" ","office":" ","brand":" ","roof_level":" ","survey_dat":" ","amenity":"restaurant","brand_wiki":" ","brand_wi_1":" ","compressed":" ","fuel_diese":" ","fuel_octan":" ","fuel_oct_1":" ","shop":" ","building_1":" ","source":" ","addr_hou_1":" ","bett_and_b":" ","bettundbik":" ","air_condit":" ","capacity":" ","dog":" ","fee":" ","lit":" ","power_supp":" ","sanitary_d":" ","sanitary_1":" ","sanitary_2":" ","shower":" ","tents":" ","toilets":" ","water_poin":" ","level":" ","wikimedia_":" ","wikipedia":" ","check_da_1":" ","payment_cr":" ","organic":" ","internet_2":" ","bar":" ","payment_ca":" ","payment_de":" ","reservatio":" ","diet_veget":"yes","indoor_sea":"yes","name_en":"BURGERISTA","website_me":"https://www.burgerista.com/speisekarte/","internet_3":" ","branch":" ","cash_withd":" ","diet_halal":" ","diet_koshe":" ","toilets_ac":" ","payment_ma":" ","payment_vi":" ","contact_in":" ","ref":" ","atm":" ","descriptio":" ","drive_thro":" ","contact__1":" ","contact_mo":" ","int_name":" ","guest_hous":" ","check_da_2":" ","diet_vegan":" ","highchair":" ","takeaway":" ","official_n":" ","leisure":" ","operator_w":" ","operator_1":" ","alt_name":" ","clothes":" ","payment__1":" ","name_zh":" ","ele":" ","lgbtq_crui":" ","lgbtq_men":" ","shop_1":" ","indoor":" ","payment_co":" ","payment_no":" ","vending":" ","charging_s":" ","diet_glute":" ","diet_local":" ","internet_4":" ","image":" ","operator_t":" "}},{"type":"Feature","id":11,"geometry":{"type":"Point","coordinates":[13.0426305,47.800082099999997]},"properties":{"FID":11,"F_id":"node/814217464","addr_city":"Salzburg","addr_house":"22","addr_postc":"5020","addr_stree":"Getreidegasse","building":" ","building_l":" ","internet_a":"wlan","internet_1":" ","name":"Café Mozart","phone":"+43662843958","roof_shape":" ","stars":" ","tourism":" ","website":"https://www.cafemozartsalzburg.at/","operator":" ","rooms":" ","wheelchair":"yes","wheelcha_1":" ","addr_count":"AT","beds":" ","breakfast":" ","check_date":" ","contact_em":"info@cafemozartsalzburg.at","contact_fa":" ","contact_ph":" ","contact_we":" ","cuisine":"coffee_shop","kitchen_ho":" ","opening_ho":"Mo-Sa 08:00-21:00; Su 09:00-21:00","outdoor_se":"no","smoking":" ","toilets_wh":"no","wikidata":"Q1025644","note":" ","at_bev_add":" ","email":" ","fax":" ","government":" ","office":" ","brand":" ","roof_level":" ","survey_dat":" ","amenity":"cafe","brand_wiki":" ","brand_wi_1":" ","compressed":" ","fuel_diese":" ","fuel_octan":" ","fuel_oct_1":" ","shop":" ","building_1":" ","source":" ","addr_hou_1":" ","bett_and_b":" ","bettundbik":" ","air_condit":" ","capacity":" ","dog":" ","fee":" ","lit":" ","power_supp":" ","sanitary_d":" ","sanitary_1":" ","sanitary_2":" ","shower":" ","tents":" ","toilets":" ","water_poin":" ","level":" ","wikimedia_":" ","wikipedia":" ","check_da_1":"2024-02-02","payment_cr":" ","organic":" ","internet_2":" ","bar":" ","payment_ca":" ","payment_de":" ","reservatio":" ","diet_veget":" ","indoor_sea":"yes","name_en":" ","website_me":" ","internet_3":" ","branch":" ","cash_withd":" ","diet_halal":" ","diet_koshe":" ","toilets_ac":" ","payment_ma":" ","payment_vi":" ","contact_in":" ","ref":" ","atm":" ","descriptio":" ","drive_thro":" ","contact__1":" ","contact_mo":" ","int_name":" ","guest_hous":" ","check_da_2":" ","diet_vegan":" ","highchair":" ","takeaway":" ","official_n":" ","leisure":" ","operator_w":" ","operator_1":" ","alt_name":" ","clothes":" ","payment__1":" ","name_zh":" ","ele":" ","lgbtq_crui":" ","lgbtq_men":" ","shop_1":" ","indoor":" ","payment_co":" ","payment_no":" ","vending":" ","charging_s":" ","diet_glute":" ","diet_local":" ","internet_4":" ","image":" ","operator_t":" "}},{"type":"Feature","id":12,"geometry":{"type":"Point","coordinates":[13.0397096,47.8003541]},"properties":{"FID":12,"F_id":"node/814235470","addr_city":"Salzburg","addr_house":"5","addr_postc":"5020","addr_stree":"Bürgerspitalplatz","building":" ","building_l":" ","internet_a":"wlan","internet_1":"no","name":"Afro Cafe","phone":"+43 662 844888","roof_shape":" ","stars":" ","tourism":" ","website":"https://afrocoffee.com/","operator":" ","rooms":" ","wheelchair":"no","wheelcha_1":" ","addr_count":" ","beds":" ","breakfast":" ","check_date":" ","contact_em":" ","contact_fa":" ","contact_ph":" ","contact_we":" ","cuisine":"african;breakfast;burger","kitchen_ho":" ","opening_ho":"Mo-Sa 09:00-20:00","outdoor_se":"yes","smoking":" ","toilets_wh":" ","wikidata":" ","note":" ","at_bev_add":" ","email":"cafe.salzburg@afrocoffee.com","fax":" ","government":" ","office":" ","brand":" ","roof_level":" ","survey_dat":" ","amenity":"cafe","brand_wiki":" ","brand_wi_1":" ","compressed":" ","fuel_diese":" ","fuel_octan":" ","fuel_oct_1":" ","shop":" ","building_1":" ","source":" ","addr_hou_1":" ","bett_and_b":" ","bettundbik":" ","air_condit":" ","capacity":" ","dog":" ","fee":" ","lit":" ","power_supp":" ","sanitary_d":" ","sanitary_1":" ","sanitary_2":" ","shower":" ","tents":" ","toilets":" ","water_poin":" ","level":" ","wikimedia_":" ","wikipedia":" ","check_da_1":" ","payment_cr":" ","organic":" ","internet_2":" ","bar":" ","payment_ca":" ","payment_de":" ","reservatio":" ","diet_veget":"yes","indoor_sea":"yes","name_en":" ","website_me":"https://afrocoffee.com/afro-cafe-salzburg/","internet_3":"customers","branch":" ","cash_withd":" ","diet_halal":" ","diet_koshe":" ","toilets_ac":" ","payment_ma":" ","payment_vi":" ","contact_in":" ","ref":" ","atm":" ","descriptio":" ","drive_thro":" ","contact__1":" ","contact_mo":" ","int_name":" ","guest_hous":" ","check_da_2":" ","diet_vegan":" ","highchair":" ","takeaway":" ","official_n":" ","leisure":" ","operator_w":" ","operator_1":" ","alt_name":" ","clothes":" ","payment__1":" ","name_zh":" ","ele":" ","lgbtq_crui":" ","lgbtq_men":" ","shop_1":" ","indoor":" ","payment_co":" ","payment_no":" ","vending":" ","charging_s":" ","diet_glute":" ","diet_local":" ","internet_4":" ","image":" ","operator_t":" "}},{"type":"Feature","id":13,"geometry":{"type":"Point","coordinates":[13.0419552,47.800637000000002]},"properties":{"FID":13,"F_id":"node/814276667","addr_city":"Salzburg","addr_house":"19","addr_postc":"5020","addr_stree":"Griesgasse","building":" ","building_l":" ","internet_a":"wlan","internet_1":"no","name":"Billa","phone":"+43 59915 05078","roof_shape":" ","stars":" ","tourism":" ","website":" ","operator":"Billa AG","rooms":" ","wheelchair":"yes","wheelcha_1":" ","addr_count":"AT","beds":" ","breakfast":" ","check_date":" ","contact_em":" ","contact_fa":" ","contact_ph":" ","contact_we":" ","cuisine":" ","kitchen_ho":" ","opening_ho":"Mo-Fr 07:40-20:00; Su,PH 11:00-15:00; Sa 07:40-18:00","outdoor_se":" ","smoking":" ","toilets_wh":" ","wikidata":" ","note":" ","at_bev_add":" ","email":" ","fax":" ","government":" ","office":" ","brand":"Billa","roof_level":" ","survey_dat":" ","amenity":" ","brand_wiki":"Q537781","brand_wi_1":"de:Billa","compressed":" ","fuel_diese":" ","fuel_octan":" ","fuel_oct_1":" ","shop":"supermarket","building_1":" ","source":" ","addr_hou_1":" ","bett_and_b":" ","bettundbik":" ","air_condit":" ","capacity":" ","dog":" ","fee":" ","lit":" ","power_supp":" ","sanitary_d":" ","sanitary_1":" ","sanitary_2":" ","shower":" ","tents":" ","toilets":"no","water_poin":" ","level":"0","wikimedia_":" ","wikipedia":" ","check_da_1":" ","payment_cr":" ","organic":"yes","internet_2":" ","bar":" ","payment_ca":" ","payment_de":" ","reservatio":" ","diet_veget":" ","indoor_sea":" ","name_en":" ","website_me":" ","internet_3":" ","branch":"05078","cash_withd":"yes","diet_halal":"no","diet_koshe":"no","toilets_ac":"private","payment_ma":" ","payment_vi":" ","contact_in":" ","ref":" ","atm":" ","descriptio":" ","drive_thro":" ","contact__1":" ","contact_mo":" ","int_name":" ","guest_hous":" ","check_da_2":" ","diet_vegan":" ","highchair":" ","takeaway":" ","official_n":" ","leisure":" ","operator_w":" ","operator_1":" ","alt_name":" ","clothes":" ","payment__1":" ","name_zh":" ","ele":" ","lgbtq_crui":" ","lgbtq_men":" ","shop_1":" ","indoor":" ","payment_co":" ","payment_no":" ","vending":" ","charging_s":" ","diet_glute":" ","diet_local":" ","internet_4":" ","image":" ","operator_t":" "}},{"type":"Feature","id":14,"geometry":{"type":"Point","coordinates":[13.0465739,47.803043600000002]},"properties":{"FID":14,"F_id":"node/824324268","addr_city":"Salzburg","addr_house":"28","addr_postc":"5020","addr_stree":"Linzer Gasse","building":" ","building_l":" ","internet_a":"wlan","internet_1":"customers","name":"My Mom's","phone":" ","roof_shape":" ","stars":" ","tourism":" ","website":" ","operator":" ","rooms":" ","wheelchair":"no","wheelcha_1":" ","addr_count":" ","beds":" ","breakfast":" ","check_date":"2023-07-19","contact_em":" ","contact_fa":" ","contact_ph":" ","contact_we":" ","cuisine":"coffee_shop;cake","kitchen_ho":" ","opening_ho":"09:00-18:00; PH 10:00-17:00","outdoor_se":"no","smoking":" ","toilets_wh":" ","wikidata":" ","note":" ","at_bev_add":" ","email":" ","fax":" ","government":" ","office":" ","brand":" ","roof_level":" ","survey_dat":" ","amenity":"cafe","brand_wiki":" ","brand_wi_1":" ","compressed":" ","fuel_diese":" ","fuel_octan":" ","fuel_oct_1":" ","shop":" ","building_1":" ","source":" ","addr_hou_1":" ","bett_and_b":" ","bettundbik":" ","air_condit":" ","capacity":" ","dog":" ","fee":" ","lit":" ","power_supp":" ","sanitary_d":" ","sanitary_1":" ","sanitary_2":" ","shower":" ","tents":" ","toilets":" ","water_poin":" ","level":" ","wikimedia_":" ","wikipedia":" ","check_da_1":" ","payment_cr":" ","organic":" ","internet_2":" ","bar":" ","payment_ca":" ","payment_de":" ","reservatio":" ","diet_veget":" ","indoor_sea":"yes","name_en":" ","website_me":" ","internet_3":" ","branch":" ","cash_withd":" ","diet_halal":" ","diet_koshe":" ","toilets_ac":" ","payment_ma":"yes","payment_vi":"yes","contact_in":" ","ref":" ","atm":" ","descriptio":" ","drive_thro":" ","contact__1":" ","contact_mo":" ","int_name":" ","guest_hous":" ","check_da_2":" ","diet_vegan":" ","highchair":" ","takeaway":" ","official_n":" ","leisure":" ","operator_w":" ","operator_1":" ","alt_name":" ","clothes":" ","payment__1":" ","name_zh":" ","ele":" ","lgbtq_crui":" ","lgbtq_men":" ","shop_1":" ","indoor":" ","payment_co":" ","payment_no":" ","vending":" ","charging_s":" ","diet_glute":" ","diet_local":" ","internet_4":" ","image":" ","operator_t":" "}},{"type":"Feature","id":15,"geometry":{"type":"Point","coordinates":[13.049800599999999,47.804873800000003]},"properties":{"FID":15,"F_id":"node/827231602","addr_city":"Salzburg","addr_house":"1","addr_postc":"5020","addr_stree":"Schallmooser Hauptstraße","building":" ","building_l":" ","internet_a":"wlan","internet_1":"customers","name":"Hofwirt","phone":" ","roof_shape":" ","stars":"3","tourism":"hotel","website":" ","operator":" ","rooms":" ","wheelchair":" ","wheelcha_1":" ","addr_count":"AT","beds":" ","breakfast":" ","check_date":"2024-05-09","contact_em":"info@hofwirt-salzburg.at","contact_fa":" ","contact_ph":"+43 662 872 172","contact_we":"https://hofwirt-salzburg.at","cuisine":" ","kitchen_ho":" ","opening_ho":"24/7","outdoor_se":" ","smoking":" ","toilets_wh":" ","wikidata":" ","note":" ","at_bev_add":"2024-10-01","email":" ","fax":" ","government":" ","office":" ","brand":" ","roof_level":" ","survey_dat":" ","amenity":" ","brand_wiki":" ","brand_wi_1":" ","compressed":" ","fuel_diese":" ","fuel_octan":" ","fuel_oct_1":" ","shop":" ","building_1":" ","source":" ","addr_hou_1":" ","bett_and_b":" ","bettundbik":" ","air_condit":" ","capacity":" ","dog":" ","fee":" ","lit":" ","power_supp":" ","sanitary_d":" ","sanitary_1":" ","sanitary_2":" ","shower":" ","tents":" ","toilets":" ","water_poin":" ","level":" ","wikimedia_":" ","wikipedia":" ","check_da_1":" ","payment_cr":" ","organic":" ","internet_2":" ","bar":" ","payment_ca":" ","payment_de":" ","reservatio":" ","diet_veget":" ","indoor_sea":" ","name_en":" ","website_me":" ","internet_3":" ","branch":" ","cash_withd":" ","diet_halal":" ","diet_koshe":" ","toilets_ac":" ","payment_ma":" ","payment_vi":" ","contact_in":"https://www.instagram.com/hofwirt_salzburg/","ref":" ","atm":" ","descriptio":" ","drive_thro":" ","contact__1":" ","contact_mo":" ","int_name":" ","guest_hous":" ","check_da_2":" ","diet_vegan":" ","highchair":" ","takeaway":" ","official_n":" ","leisure":" ","operator_w":" ","operator_1":" ","alt_name":" ","clothes":" ","payment__1":" ","name_zh":" ","ele":" ","lgbtq_crui":" ","lgbtq_men":" ","shop_1":" ","indoor":" ","payment_co":" ","payment_no":" ","vending":" ","charging_s":" ","diet_glute":" ","diet_local":" ","internet_4":" ","image":" ","operator_t":" "}},{"type":"Feature","id":16,"geometry":{"type":"Point","coordinates":[13.023043400000001,47.800741700000003]},"properties":{"FID":16,"F_id":"node/1203347344","addr_city":" ","addr_house":" ","addr_postc":" ","addr_stree":" ","building":" ","building_l":" ","internet_a":"wlan","internet_1":"no","name":" ","phone":" ","roof_shape":" ","stars":" ","tourism":" ","website":" ","operator":" ","rooms":" ","wheelchair":" ","wheelcha_1":" ","addr_count":" ","beds":" ","breakfast":" ","check_date":" ","contact_em":" ","contact_fa":" ","contact_ph":" ","contact_we":" ","cuisine":" ","kitchen_ho":" ","opening_ho":" ","outdoor_se":" ","smoking":" ","toilets_wh":" ","wikidata":" ","note":" ","at_bev_add":" ","email":" ","fax":" ","government":" ","office":" ","brand":" ","roof_level":" ","survey_dat":" ","amenity":"internet_access","brand_wiki":" ","brand_wi_1":" ","compressed":" ","fuel_diese":" ","fuel_octan":" ","fuel_oct_1":" ","shop":" ","building_1":" ","source":" ","addr_hou_1":" ","bett_and_b":" ","bettundbik":" ","air_condit":" ","capacity":" ","dog":" ","fee":" ","lit":" ","power_supp":" ","sanitary_d":" ","sanitary_1":" ","sanitary_2":" ","shower":" ","tents":" ","toilets":" ","water_poin":" ","level":" ","wikimedia_":" ","wikipedia":" ","check_da_1":" ","payment_cr":" ","organic":" ","internet_2":"FON","bar":" ","payment_ca":" ","payment_de":" ","reservatio":" ","diet_veget":" ","indoor_sea":" ","name_en":" ","website_me":" ","internet_3":" ","branch":" ","cash_withd":" ","diet_halal":" ","diet_koshe":" ","toilets_ac":" ","payment_ma":" ","payment_vi":" ","contact_in":" ","ref":"philip7","atm":" ","descriptio":" ","drive_thro":" ","contact__1":" ","contact_mo":" ","int_name":" ","guest_hous":" ","check_da_2":" ","diet_vegan":" ","highchair":" ","takeaway":" ","official_n":" ","leisure":" ","operator_w":" ","operator_1":" ","alt_name":" ","clothes":" ","payment__1":" ","name_zh":" ","ele":" ","lgbtq_crui":" ","lgbtq_men":" ","shop_1":" ","indoor":" ","payment_co":" ","payment_no":" ","vending":" ","charging_s":" ","diet_glute":" ","diet_local":" ","internet_4":" ","image":" ","operator_t":" "}},{"type":"Feature","id":17,"geometry":{"type":"Point","coordinates":[13.025905099999999,47.801899499999998]},"properties":{"FID":17,"F_id":"node/1203347366","addr_city":" ","addr_house":" ","addr_postc":" ","addr_stree":" ","building":" ","building_l":" ","internet_a":"wlan","internet_1":"no","name":" ","phone":" ","roof_shape":" ","stars":" ","tourism":" ","website":" ","operator":" ","rooms":" ","wheelchair":" ","wheelcha_1":" ","addr_count":" ","beds":" ","breakfast":" ","check_date":" ","contact_em":" ","contact_fa":" ","contact_ph":" ","contact_we":" ","cuisine":" ","kitchen_ho":" ","opening_ho":" ","outdoor_se":" ","smoking":" ","toilets_wh":" ","wikidata":" ","note":" ","at_bev_add":" ","email":" ","fax":" ","government":" ","office":" ","brand":" ","roof_level":" ","survey_dat":" ","amenity":"internet_access","brand_wiki":" ","brand_wi_1":" ","compressed":" ","fuel_diese":" ","fuel_octan":" ","fuel_oct_1":" ","shop":" ","building_1":" ","source":" ","addr_hou_1":" ","bett_and_b":" ","bettundbik":" ","air_condit":" ","capacity":" ","dog":" ","fee":" ","lit":" ","power_supp":" ","sanitary_d":" ","sanitary_1":" ","sanitary_2":" ","shower":" ","tents":" ","toilets":" ","water_poin":" ","level":" ","wikimedia_":" ","wikipedia":" ","check_da_1":" ","payment_cr":" ","organic":" ","internet_2":"FON","bar":" ","payment_ca":" ","payment_de":" ","reservatio":" ","diet_veget":" ","indoor_sea":" ","name_en":" ","website_me":" ","internet_3":" ","branch":" ","cash_withd":" ","diet_halal":" ","diet_koshe":" ","toilets_ac":" ","payment_ma":" ","payment_vi":" ","contact_in":" ","ref":"frido77","atm":" ","descriptio":" ","drive_thro":" ","contact__1":" ","contact_mo":" ","int_name":" ","guest_hous":" ","check_da_2":" ","diet_vegan":" ","highchair":" ","takeaway":" ","official_n":" ","leisure":" ","operator_w":" ","operator_1":" ","alt_name":" ","clothes":" ","payment__1":" ","name_zh":" ","ele":" ","lgbtq_crui":" ","lgbtq_men":" ","shop_1":" ","indoor":" ","payment_co":" ","payment_no":" ","vending":" ","charging_s":" ","diet_glute":" ","diet_local":" ","internet_4":" ","image":" ","operator_t":" "}},{"type":"Feature","id":18,"geometry":{"type":"Point","coordinates":[13.0728049,47.793364099999998]},"properties":{"FID":18,"F_id":"node/1407318581","addr_city":"Salzburg","addr_house":"35","addr_postc":"5026","addr_stree":"Aigner Straße","building":" ","building_l":" ","internet_a":"wlan","internet_1":" ","name":"Salzburger Sparkasse","phone":"+43 (0)5 0100 - 20404","roof_shape":" ","stars":" ","tourism":" ","website":" ","operator":"Hans-Jürgen Kriechhammer","rooms":" ","wheelchair":" ","wheelcha_1":" ","addr_count":" ","beds":" ","breakfast":" ","check_date":" ","contact_em":" ","contact_fa":" ","contact_ph":" ","contact_we":" ","cuisine":" ","kitchen_ho":" ","opening_ho":"Mo-Fr 08:30-12:30,14:00-16:30","outdoor_se":" ","smoking":" ","toilets_wh":" ","wikidata":" ","note":" ","at_bev_add":" ","email":" ","fax":" ","government":" ","office":" ","brand":" ","roof_level":" ","survey_dat":" ","amenity":"bank","brand_wiki":" ","brand_wi_1":" ","compressed":" ","fuel_diese":" ","fuel_octan":" ","fuel_oct_1":" ","shop":" ","building_1":" ","source":" ","addr_hou_1":" ","bett_and_b":" ","bettundbik":" ","air_condit":" ","capacity":" ","dog":" ","fee":" ","lit":" ","power_supp":" ","sanitary_d":" ","sanitary_1":" ","sanitary_2":" ","shower":" ","tents":" ","toilets":" ","water_poin":" ","level":"0","wikimedia_":" ","wikipedia":" ","check_da_1":" ","payment_cr":" ","organic":" ","internet_2":" ","bar":" ","payment_ca":" ","payment_de":" ","reservatio":" ","diet_veget":" ","indoor_sea":" ","name_en":" ","website_me":" ","internet_3":" ","branch":" ","cash_withd":" ","diet_halal":" ","diet_koshe":" ","toilets_ac":" ","payment_ma":" ","payment_vi":" ","contact_in":" ","ref":" ","atm":"yes","descriptio":"Einige Parkplätze vor der Eingangstür. Geldautomat befindet sich vor der Bankfiliale. Direkte Verkehrsanbindung durch Bushaltestelle Ernst-Grein-Straße.","drive_thro":"no","contact__1":" ","contact_mo":" ","int_name":" ","guest_hous":" ","check_da_2":" ","diet_vegan":" ","highchair":" ","takeaway":" ","official_n":" ","leisure":" ","operator_w":" ","operator_1":" ","alt_name":" ","clothes":" ","payment__1":" ","name_zh":" ","ele":" ","lgbtq_crui":" ","lgbtq_men":" ","shop_1":" ","indoor":" ","payment_co":" ","payment_no":" ","vending":" ","charging_s":" ","diet_glute":" ","diet_local":" ","internet_4":" ","image":" ","operator_t":" "}},{"type":"Feature","id":19,"geometry":{"type":"Point","coordinates":[13.0179451,47.801759300000001]},"properties":{"FID":19,"F_id":"node/1423972388","addr_city":" ","addr_house":" ","addr_postc":" ","addr_stree":" ","building":" ","building_l":" ","internet_a":"wlan","internet_1":"customers","name":"Hotel Gasthof Junior","phone":"+43 662 827 648","roof_shape":" ","stars":"3,5","tourism":"hotel","website":"https://www.hoteljunior.at","operator":" ","rooms":" ","wheelchair":" ","wheelcha_1":" ","addr_count":" ","beds":" ","breakfast":" ","check_date":" ","contact_em":" ","contact_fa":" ","contact_ph":" ","contact_we":" ","cuisine":" ","kitchen_ho":" ","opening_ho":" ","outdoor_se":" ","smoking":" ","toilets_wh":" ","wikidata":" ","note":" ","at_bev_add":" ","email":" ","fax":" ","government":" ","office":" ","brand":" ","roof_level":" ","survey_dat":" ","amenity":" ","brand_wiki":" ","brand_wi_1":" ","compressed":" ","fuel_diese":" ","fuel_octan":" ","fuel_oct_1":" ","shop":" ","building_1":" ","source":" ","addr_hou_1":" ","bett_and_b":" ","bettundbik":" ","air_condit":" ","capacity":" ","dog":" ","fee":" ","lit":" ","power_supp":" ","sanitary_d":" ","sanitary_1":" ","sanitary_2":" ","shower":" ","tents":" ","toilets":" ","water_poin":" ","level":" ","wikimedia_":" ","wikipedia":" ","check_da_1":" ","payment_cr":" ","organic":" ","internet_2":" ","bar":" ","payment_ca":" ","payment_de":" ","reservatio":" ","diet_veget":" ","indoor_sea":" ","name_en":" ","website_me":" ","internet_3":" ","branch":" ","cash_withd":" ","diet_halal":" ","diet_koshe":" ","toilets_ac":" ","payment_ma":" ","payment_vi":" ","contact_in":" ","ref":" ","atm":" ","descriptio":" ","drive_thro":" ","contact__1":" ","contact_mo":" ","int_name":" ","guest_hous":" ","check_da_2":" ","diet_vegan":" ","highchair":" ","takeaway":" ","official_n":" ","leisure":" ","operator_w":" ","operator_1":" ","alt_name":" ","clothes":" ","payment__1":" ","name_zh":" ","ele":" ","lgbtq_crui":" ","lgbtq_men":" ","shop_1":" ","indoor":" ","payment_co":" ","payment_no":" ","vending":" ","charging_s":" ","diet_glute":" ","diet_local":" ","internet_4":" ","image":" ","operator_t":" "}},{"type":"Feature","id":20,"geometry":{"type":"Point","coordinates":[13.025728900000001,47.796347599999997]},"properties":{"FID":20,"F_id":"node/1424042210","addr_city":"Salzburg","addr_house":"7","addr_postc":"5020","addr_stree":"Maxglaner Hauptstraße","building":" ","building_l":" ","internet_a":"wlan","internet_1":"yes","name":"Hotel Astoria","phone":"+43 662 834277","roof_shape":" ","stars":" ","tourism":"hotel","website":"https://www.salzburgastoria.at/","operator":" ","rooms":" ","wheelchair":"no","wheelcha_1":" ","addr_count":"AT","beds":" ","breakfast":" ","check_date":" ","contact_em":" ","contact_fa":" ","contact_ph":" ","contact_we":" ","cuisine":" ","kitchen_ho":" ","opening_ho":" ","outdoor_se":" ","smoking":" ","toilets_wh":" ","wikidata":" ","note":" ","at_bev_add":" ","email":"info@salzburgastoria.com","fax":" ","government":" ","office":" ","brand":" ","roof_level":" ","survey_dat":" ","amenity":" ","brand_wiki":" ","brand_wi_1":" ","compressed":" ","fuel_diese":" ","fuel_octan":" ","fuel_oct_1":" ","shop":" ","building_1":" ","source":" ","addr_hou_1":" ","bett_and_b":" ","bettundbik":" ","air_condit":" ","capacity":" ","dog":" ","fee":" ","lit":" ","power_supp":" ","sanitary_d":" ","sanitary_1":" ","sanitary_2":" ","shower":" ","tents":" ","toilets":" ","water_poin":" ","level":" ","wikimedia_":" ","wikipedia":" ","check_da_1":" ","payment_cr":" ","organic":" ","internet_2":" ","bar":" ","payment_ca":" ","payment_de":" ","reservatio":" ","diet_veget":" ","indoor_sea":" ","name_en":" ","website_me":" ","internet_3":" ","branch":" ","cash_withd":" ","diet_halal":" ","diet_koshe":" ","toilets_ac":" ","payment_ma":" ","payment_vi":" ","contact_in":" ","ref":" ","atm":" ","descriptio":" ","drive_thro":" ","contact__1":" ","contact_mo":" ","int_name":" ","guest_hous":" ","check_da_2":" ","diet_vegan":" ","highchair":" ","takeaway":" ","official_n":" ","leisure":" ","operator_w":" ","operator_1":" ","alt_name":" ","clothes":" ","payment__1":" ","name_zh":" ","ele":" ","lgbtq_crui":" ","lgbtq_men":" ","shop_1":" ","indoor":" ","payment_co":" ","payment_no":" ","vending":" ","charging_s":" ","diet_glute":" ","diet_local":" ","internet_4":" ","image":" ","operator_t":" "}},{"type":"Feature","id":21,"geometry":{"type":"Point","coordinates":[13.0553355,47.807805100000003]},"properties":{"FID":21,"F_id":"node/1447945868","addr_city":" ","addr_house":" ","addr_postc":" ","addr_stree":" ","building":" ","building_l":" ","internet_a":"wlan","internet_1":"customers","name":"Hotel Drei Kreuz","phone":"+43 662 87 27 90","roof_shape":" ","stars":"3","tourism":"hotel","website":"https://www.hoteldreikreuz.at#","operator":" ","rooms":"24","wheelchair":" ","wheelcha_1":" ","addr_count":" ","beds":" ","breakfast":" ","check_date":" ","contact_em":" ","contact_fa":" ","contact_ph":" ","contact_we":" ","cuisine":" ","kitchen_ho":" ","opening_ho":" ","outdoor_se":" ","smoking":" ","toilets_wh":" ","wikidata":" ","note":" ","at_bev_add":" ","email":" ","fax":" ","government":" ","office":" ","brand":" ","roof_level":" ","survey_dat":" ","amenity":" ","brand_wiki":" ","brand_wi_1":" ","compressed":" ","fuel_diese":" ","fuel_octan":" ","fuel_oct_1":" ","shop":" ","building_1":" ","source":" ","addr_hou_1":" ","bett_and_b":" ","bettundbik":" ","air_condit":" ","capacity":" ","dog":" ","fee":" ","lit":" ","power_supp":" ","sanitary_d":" ","sanitary_1":" ","sanitary_2":" ","shower":" ","tents":" ","toilets":" ","water_poin":" ","level":" ","wikimedia_":" ","wikipedia":" ","check_da_1":" ","payment_cr":" ","organic":" ","internet_2":" ","bar":" ","payment_ca":" ","payment_de":" ","reservatio":" ","diet_veget":" ","indoor_sea":" ","name_en":" ","website_me":" ","internet_3":" ","branch":" ","cash_withd":" ","diet_halal":" ","diet_koshe":" ","toilets_ac":" ","payment_ma":" ","payment_vi":" ","contact_in":" ","ref":" ","atm":" ","descriptio":" ","drive_thro":" ","contact__1":" ","contact_mo":" ","int_name":" ","guest_hous":" ","check_da_2":" ","diet_vegan":" ","highchair":" ","takeaway":" ","official_n":" ","leisure":" ","operator_w":" ","operator_1":" ","alt_name":" ","clothes":" ","payment__1":" ","name_zh":" ","ele":" ","lgbtq_crui":" ","lgbtq_men":" ","shop_1":" ","indoor":" ","payment_co":" ","payment_no":" ","vending":" ","charging_s":" ","diet_glute":" ","diet_local":" ","internet_4":" ","image":" ","operator_t":" "}},{"type":"Feature","id":22,"geometry":{"type":"Point","coordinates":[13.0723582,47.802103700000004]},"properties":{"FID":22,"F_id":"node/1494683143","addr_city":" ","addr_house":" ","addr_postc":" ","addr_stree":" ","building":" ","building_l":" ","internet_a":"wlan","internet_1":"no","name":" ","phone":" ","roof_shape":" ","stars":" ","tourism":" ","website":" ","operator":" ","rooms":" ","wheelchair":" ","wheelcha_1":" ","addr_count":" ","beds":" ","breakfast":" ","check_date":" ","contact_em":" ","contact_fa":" ","contact_ph":" ","contact_we":" ","cuisine":" ","kitchen_ho":" ","opening_ho":" ","outdoor_se":" ","smoking":" ","toilets_wh":" ","wikidata":" ","note":" ","at_bev_add":" ","email":" ","fax":" ","government":" ","office":" ","brand":" ","roof_level":" ","survey_dat":" ","amenity":"internet_access","brand_wiki":" ","brand_wi_1":" ","compressed":" ","fuel_diese":" ","fuel_octan":" ","fuel_oct_1":" ","shop":" ","building_1":" ","source":" ","addr_hou_1":" ","bett_and_b":" ","bettundbik":" ","air_condit":" ","capacity":" ","dog":" ","fee":" ","lit":" ","power_supp":" ","sanitary_d":" ","sanitary_1":" ","sanitary_2":" ","shower":" ","tents":" ","toilets":" ","water_poin":" ","level":" ","wikimedia_":" ","wikipedia":" ","check_da_1":" ","payment_cr":" ","organic":" ","internet_2":"FON","bar":" ","payment_ca":" ","payment_de":" ","reservatio":" ","diet_veget":" ","indoor_sea":" ","name_en":" ","website_me":" ","internet_3":" ","branch":" ","cash_withd":" ","diet_halal":" ","diet_koshe":" ","toilets_ac":" ","payment_ma":" ","payment_vi":" ","contact_in":" ","ref":" ","atm":" ","descriptio":" ","drive_thro":" ","contact__1":" ","contact_mo":" ","int_name":" ","guest_hous":" ","check_da_2":" ","diet_vegan":" ","highchair":" ","takeaway":" ","official_n":" ","leisure":" ","operator_w":" ","operator_1":" ","alt_name":" ","clothes":" ","payment__1":" ","name_zh":" ","ele":" ","lgbtq_crui":" ","lgbtq_men":" ","shop_1":" ","indoor":" ","payment_co":" ","payment_no":" ","vending":" ","charging_s":" ","diet_glute":" ","diet_local":" ","internet_4":" ","image":" ","operator_t":" "}},{"type":"Feature","id":23,"geometry":{"type":"Point","coordinates":[13.040560599999999,47.818937599999998]},"properties":{"FID":23,"F_id":"node/1605470323","addr_city":"Salzburg","addr_house":"93","addr_postc":"5020","addr_stree":"Plainstraße","building":" ","building_l":" ","internet_a":"wlan","internet_1":"yes","name":"Gärtnerwirt","phone":"+43 662 941530","roof_shape":" ","stars":" ","tourism":" ","website":"https://www.gaertnerwirt.at/","operator":" ","rooms":" ","wheelchair":"yes","wheelcha_1":" ","addr_count":"AT","beds":" ","breakfast":" ","check_date":" ","contact_em":" ","contact_fa":" ","contact_ph":" ","contact_we":" ","cuisine":"regional","kitchen_ho":" ","opening_ho":"Mo-Fr 10:00-23:00","outdoor_se":"yes","smoking":" ","toilets_wh":" ","wikidata":" ","note":" ","at_bev_add":"2017-10-01","email":"info@gaertnerwirt.at","fax":" ","government":" ","office":" ","brand":" ","roof_level":" ","survey_dat":" ","amenity":"restaurant","brand_wiki":" ","brand_wi_1":" ","compressed":" ","fuel_diese":" ","fuel_octan":" ","fuel_oct_1":" ","shop":" ","building_1":" ","source":" ","addr_hou_1":" ","bett_and_b":" ","bettundbik":" ","air_condit":" ","capacity":" ","dog":" ","fee":" ","lit":" ","power_supp":" ","sanitary_d":" ","sanitary_1":" ","sanitary_2":" ","shower":" ","tents":" ","toilets":" ","water_poin":" ","level":" ","wikimedia_":" ","wikipedia":" ","check_da_1":" ","payment_cr":" ","organic":" ","internet_2":" ","bar":"yes","payment_ca":" ","payment_de":" ","reservatio":" ","diet_veget":" ","indoor_sea":" ","name_en":" ","website_me":" ","internet_3":" ","branch":" ","cash_withd":" ","diet_halal":" ","diet_koshe":" ","toilets_ac":" ","payment_ma":" ","payment_vi":" ","contact_in":" ","ref":" ","atm":" ","descriptio":" ","drive_thro":" ","contact__1":" ","contact_mo":" ","int_name":" ","guest_hous":" ","check_da_2":" ","diet_vegan":" ","highchair":" ","takeaway":" ","official_n":" ","leisure":" ","operator_w":" ","operator_1":" ","alt_name":" ","clothes":" ","payment__1":" ","name_zh":" ","ele":" ","lgbtq_crui":" ","lgbtq_men":" ","shop_1":" ","indoor":" ","payment_co":" ","payment_no":" ","vending":" ","charging_s":" ","diet_glute":" ","diet_local":" ","internet_4":" ","image":" ","operator_t":" "}},{"type":"Feature","id":24,"geometry":{"type":"Point","coordinates":[13.049474,47.798978599999998]},"properties":{"FID":24,"F_id":"node/1650949386","addr_city":"Salzburg","addr_house":"38","addr_postc":"5020","addr_stree":"Rudolfskai","building":" ","building_l":" ","internet_a":"wlan","internet_1":"no","name":"Kaffee Alchemie","phone":" ","roof_shape":" ","stars":" ","tourism":" ","website":" ","operator":" ","rooms":" ","wheelchair":"no","wheelcha_1":" ","addr_count":"AT","beds":" ","breakfast":" ","check_date":" ","contact_em":"post@kaffee-alchemie.at","contact_fa":" ","contact_ph":" ","contact_we":" ","cuisine":"coffee_shop","kitchen_ho":" ","opening_ho":"Mo-Fr 07:30-18:00; Sa 09:00-18:00; Su,PH off","outdoor_se":"yes","smoking":" ","toilets_wh":" ","wikidata":" ","note":" ","at_bev_add":" ","email":" ","fax":" ","government":" ","office":" ","brand":" ","roof_level":" ","survey_dat":" ","amenity":"cafe","brand_wiki":" ","brand_wi_1":" ","compressed":" ","fuel_diese":" ","fuel_octan":" ","fuel_oct_1":" ","shop":" ","building_1":" ","source":" ","addr_hou_1":" ","bett_and_b":" ","bettundbik":" ","air_condit":" ","capacity":" ","dog":" ","fee":" ","lit":" ","power_supp":" ","sanitary_d":" ","sanitary_1":" ","sanitary_2":" ","shower":" ","tents":" ","toilets":" ","water_poin":" ","level":" ","wikimedia_":" ","wikipedia":" ","check_da_1":" ","payment_cr":" ","organic":" ","internet_2":" ","bar":" ","payment_ca":" ","payment_de":" ","reservatio":" ","diet_veget":" ","indoor_sea":"yes","name_en":" ","website_me":" ","internet_3":" ","branch":" ","cash_withd":" ","diet_halal":" ","diet_koshe":" ","toilets_ac":" ","payment_ma":" ","payment_vi":" ","contact_in":" ","ref":" ","atm":" ","descriptio":" ","drive_thro":" ","contact__1":"https://www.facebook.com/KaffeeAlchemie","contact_mo":"+43 681 2017 3143","int_name":"Coffee-Alchemy","guest_hous":" ","check_da_2":" ","diet_vegan":" ","highchair":" ","takeaway":" ","official_n":" ","leisure":" ","operator_w":" ","operator_1":" ","alt_name":" ","clothes":" ","payment__1":" ","name_zh":" ","ele":" ","lgbtq_crui":" ","lgbtq_men":" ","shop_1":" ","indoor":" ","payment_co":" ","payment_no":" ","vending":" ","charging_s":" ","diet_glute":" ","diet_local":" ","internet_4":" ","image":" ","operator_t":" "}},{"type":"Feature","id":25,"geometry":{"type":"Point","coordinates":[13.0234723,47.777552200000002]},"properties":{"FID":25,"F_id":"node/1746745751","addr_city":"Salzburg","addr_house":"69","addr_postc":"5020","addr_stree":"Moosstraße","building":" ","building_l":" ","internet_a":"wlan","internet_1":" ","name":"Haus Ballwein","phone":"+43 662 824029","roof_shape":" ","stars":" ","tourism":"guest_house","website":"https://www.haus-ballwein.at/","operator":" ","rooms":" ","wheelchair":" ","wheelcha_1":" ","addr_count":"AT","beds":" ","breakfast":" ","check_date":" ","contact_em":" ","contact_fa":" ","contact_ph":" ","contact_we":" ","cuisine":" ","kitchen_ho":" ","opening_ho":" ","outdoor_se":" ","smoking":"no","toilets_wh":" ","wikidata":" ","note":" ","at_bev_add":" ","email":"haus.ballwein@gmx.net","fax":" ","government":" ","office":" ","brand":" ","roof_level":" ","survey_dat":" ","amenity":" ","brand_wiki":" ","brand_wi_1":" ","compressed":" ","fuel_diese":" ","fuel_octan":" ","fuel_oct_1":" ","shop":" ","building_1":" ","source":" ","addr_hou_1":" ","bett_and_b":" ","bettundbik":" ","air_condit":" ","capacity":" ","dog":" ","fee":" ","lit":" ","power_supp":" ","sanitary_d":" ","sanitary_1":" ","sanitary_2":" ","shower":" ","tents":" ","toilets":" ","water_poin":" ","level":" ","wikimedia_":" ","wikipedia":" ","check_da_1":" ","payment_cr":" ","organic":" ","internet_2":" ","bar":" ","payment_ca":"yes","payment_de":" ","reservatio":" ","diet_veget":" ","indoor_sea":" ","name_en":" ","website_me":" ","internet_3":" ","branch":" ","cash_withd":" ","diet_halal":" ","diet_koshe":" ","toilets_ac":" ","payment_ma":" ","payment_vi":" ","contact_in":" ","ref":" ","atm":" ","descriptio":" ","drive_thro":" ","contact__1":" ","contact_mo":" ","int_name":" ","guest_hous":"bed_and_breakfast","check_da_2":" ","diet_vegan":" ","highchair":" ","takeaway":" ","official_n":" ","leisure":" ","operator_w":" ","operator_1":" ","alt_name":" ","clothes":" ","payment__1":" ","name_zh":" ","ele":" ","lgbtq_crui":" ","lgbtq_men":" ","shop_1":" ","indoor":" ","payment_co":" ","payment_no":" ","vending":" ","charging_s":" ","diet_glute":" ","diet_local":" ","internet_4":" ","image":" ","operator_t":" "}},{"type":"Feature","id":26,"geometry":{"type":"Point","coordinates":[13.054112399999999,47.813599099999998]},"properties":{"FID":26,"F_id":"node/1760308393","addr_city":" ","addr_house":" ","addr_postc":" ","addr_stree":" ","building":" ","building_l":" ","internet_a":"wlan","internet_1":"no","name":"Pension Elisabeth","phone":" ","roof_shape":" ","stars":"1","tourism":"hotel","website":" ","operator":" ","rooms":" ","wheelchair":" ","wheelcha_1":" ","addr_count":" ","beds":" ","breakfast":" ","check_date":" ","contact_em":"info@pension-elisabeth.at","contact_fa":"+43 662 871664","contact_ph":"+43 662 871664","contact_we":"http://www.pension-elisabeth.at/","cuisine":" ","kitchen_ho":" ","opening_ho":" ","outdoor_se":" ","smoking":" ","toilets_wh":" ","wikidata":" ","note":" ","at_bev_add":" ","email":" ","fax":" ","government":" ","office":" ","brand":" ","roof_level":" ","survey_dat":" ","amenity":" ","brand_wiki":" ","brand_wi_1":" ","compressed":" ","fuel_diese":" ","fuel_octan":" ","fuel_oct_1":" ","shop":" ","building_1":" ","source":" ","addr_hou_1":" ","bett_and_b":" ","bettundbik":" ","air_condit":" ","capacity":" ","dog":" ","fee":" ","lit":" ","power_supp":" ","sanitary_d":" ","sanitary_1":" ","sanitary_2":" ","shower":" ","tents":" ","toilets":" ","water_poin":" ","level":" ","wikimedia_":" ","wikipedia":" ","check_da_1":" ","payment_cr":" ","organic":" ","internet_2":" ","bar":" ","payment_ca":" ","payment_de":" ","reservatio":" ","diet_veget":" ","indoor_sea":" ","name_en":" ","website_me":" ","internet_3":" ","branch":" ","cash_withd":" ","diet_halal":" ","diet_koshe":" ","toilets_ac":" ","payment_ma":" ","payment_vi":" ","contact_in":" ","ref":" ","atm":" ","descriptio":" ","drive_thro":" ","contact__1":" ","contact_mo":" ","int_name":" ","guest_hous":" ","check_da_2":"2023-08-21","diet_vegan":" ","highchair":" ","takeaway":" ","official_n":" ","leisure":" ","operator_w":" ","operator_1":" ","alt_name":" ","clothes":" ","payment__1":" ","name_zh":" ","ele":" ","lgbtq_crui":" ","lgbtq_men":" ","shop_1":" ","indoor":" ","payment_co":" ","payment_no":" ","vending":" ","charging_s":" ","diet_glute":" ","diet_local":" ","internet_4":" ","image":" ","operator_t":" "}},{"type":"Feature","id":27,"geometry":{"type":"Point","coordinates":[13.055707,47.8075884]},"properties":{"FID":27,"F_id":"node/1819140643","addr_city":"Salzburg","addr_house":"6","addr_postc":"5020","addr_stree":"Vogelweiderstraße","building":" ","building_l":" ","internet_a":"wlan","internet_1":"customers","name":"Hotel Ganslhof","phone":" ","roof_shape":" ","stars":"3","tourism":"hotel","website":" ","operator":" ","rooms":" ","wheelchair":" ","wheelcha_1":" ","addr_count":"AT","beds":" ","breakfast":" ","check_date":" ","contact_em":"office@hotel-ganslhof.at","contact_fa":" ","contact_ph":"+43 662 873853","contact_we":"https://hotel-ganslhof.at/","cuisine":" ","kitchen_ho":" ","opening_ho":" ","outdoor_se":" ","smoking":" ","toilets_wh":" ","wikidata":" ","note":" ","at_bev_add":"2024-04-01","email":" ","fax":" ","government":" ","office":" ","brand":" ","roof_level":" ","survey_dat":" ","amenity":" ","brand_wiki":" ","brand_wi_1":" ","compressed":" ","fuel_diese":" ","fuel_octan":" ","fuel_oct_1":" ","shop":" ","building_1":" ","source":" ","addr_hou_1":" ","bett_and_b":" ","bettundbik":" ","air_condit":" ","capacity":" ","dog":" ","fee":" ","lit":" ","power_supp":" ","sanitary_d":" ","sanitary_1":" ","sanitary_2":" ","shower":" ","tents":" ","toilets":" ","water_poin":" ","level":" ","wikimedia_":" ","wikipedia":" ","check_da_1":" ","payment_cr":" ","organic":" ","internet_2":" ","bar":" ","payment_ca":" ","payment_de":" ","reservatio":" ","diet_veget":" ","indoor_sea":" ","name_en":" ","website_me":" ","internet_3":" ","branch":" ","cash_withd":" ","diet_halal":" ","diet_koshe":" ","toilets_ac":" ","payment_ma":" ","payment_vi":" ","contact_in":" ","ref":" ","atm":" ","descriptio":" ","drive_thro":" ","contact__1":" ","contact_mo":" ","int_name":" ","guest_hous":" ","check_da_2":" ","diet_vegan":" ","highchair":" ","takeaway":" ","official_n":" ","leisure":" ","operator_w":" ","operator_1":" ","alt_name":" ","clothes":" ","payment__1":" ","name_zh":" ","ele":" ","lgbtq_crui":" ","lgbtq_men":" ","shop_1":" ","indoor":" ","payment_co":" ","payment_no":" ","vending":" ","charging_s":" ","diet_glute":" ","diet_local":" ","internet_4":" ","image":" ","operator_t":" "}},{"type":"Feature","id":28,"geometry":{"type":"Point","coordinates":[13.070180199999999,47.815881300000001]},"properties":{"FID":28,"F_id":"node/1986986614","addr_city":"Salzburg","addr_house":"54","addr_postc":" ","addr_stree":"Linzer Bundesstraße","building":" ","building_l":" ","internet_a":"wlan","internet_1":"no","name":"Hotel Turnerwirt","phone":"+43 (0)662-640630","roof_shape":" ","stars":" ","tourism":"hotel","website":" ","operator":" ","rooms":" ","wheelchair":" ","wheelcha_1":" ","addr_count":"AT","beds":" ","breakfast":" ","check_date":" ","contact_em":" ","contact_fa":" ","contact_ph":" ","contact_we":" ","cuisine":" ","kitchen_ho":" ","opening_ho":" ","outdoor_se":" ","smoking":" ","toilets_wh":" ","wikidata":" ","note":" ","at_bev_add":" ","email":" ","fax":" ","government":" ","office":" ","brand":" ","roof_level":" ","survey_dat":" ","amenity":" ","brand_wiki":" ","brand_wi_1":" ","compressed":" ","fuel_diese":" ","fuel_octan":" ","fuel_oct_1":" ","shop":" ","building_1":" ","source":" ","addr_hou_1":" ","bett_and_b":" ","bettundbik":" ","air_condit":" ","capacity":" ","dog":" ","fee":" ","lit":" ","power_supp":" ","sanitary_d":" ","sanitary_1":" ","sanitary_2":" ","shower":" ","tents":" ","toilets":" ","water_poin":" ","level":" ","wikimedia_":" ","wikipedia":" ","check_da_1":" ","payment_cr":" ","organic":" ","internet_2":" ","bar":" ","payment_ca":" ","payment_de":" ","reservatio":" ","diet_veget":" ","indoor_sea":" ","name_en":" ","website_me":" ","internet_3":" ","branch":" ","cash_withd":" ","diet_halal":" ","diet_koshe":" ","toilets_ac":" ","payment_ma":" ","payment_vi":" ","contact_in":" ","ref":" ","atm":" ","descriptio":" ","drive_thro":" ","contact__1":" ","contact_mo":" ","int_name":" ","guest_hous":" ","check_da_2":" ","diet_vegan":" ","highchair":" ","takeaway":" ","official_n":" ","leisure":" ","operator_w":" ","operator_1":" ","alt_name":" ","clothes":" ","payment__1":" ","name_zh":" ","ele":" ","lgbtq_crui":" ","lgbtq_men":" ","shop_1":" ","indoor":" ","payment_co":" ","payment_no":" ","vending":" ","charging_s":" ","diet_glute":" ","diet_local":" ","internet_4":" ","image":" ","operator_t":" "}},{"type":"Feature","id":29,"geometry":{"type":"Point","coordinates":[13.0495427,47.7978606]},"properties":{"FID":29,"F_id":"node/2261987891","addr_city":"Salzburg","addr_house":"5","addr_postc":"5020","addr_stree":"Chiemseegasse","building":" ","building_l":" ","internet_a":"wlan","internet_1":" ","name":"Das Kaffeehaus","phone":"+43 660 159 76 69","roof_shape":" ","stars":" ","tourism":" ","website":"https://kaffeehaus-salzburg.at/","operator":" ","rooms":" ","wheelchair":"no","wheelcha_1":" ","addr_count":"AT","beds":" ","breakfast":" ","check_date":" ","contact_em":" ","contact_fa":" ","contact_ph":" ","contact_we":"kaffeehaus-salzburg.at","cuisine":" ","kitchen_ho":" ","opening_ho":"Mo-Su 09:00-18:00","outdoor_se":"yes","smoking":" ","toilets_wh":" ","wikidata":" ","note":" ","at_bev_add":"2020-10-01","email":"kaffeehaus@hotel-melanie.at","fax":" ","government":" ","office":" ","brand":" ","roof_level":" ","survey_dat":" ","amenity":"cafe","brand_wiki":" ","brand_wi_1":" ","compressed":" ","fuel_diese":" ","fuel_octan":" ","fuel_oct_1":" ","shop":" ","building_1":" ","source":" ","addr_hou_1":" ","bett_and_b":" ","bettundbik":" ","air_condit":" ","capacity":" ","dog":" ","fee":" ","lit":" ","power_supp":" ","sanitary_d":" ","sanitary_1":" ","sanitary_2":" ","shower":" ","tents":" ","toilets":" ","water_poin":" ","level":" ","wikimedia_":" ","wikipedia":" ","check_da_1":" ","payment_cr":" ","organic":" ","internet_2":" ","bar":" ","payment_ca":" ","payment_de":" ","reservatio":" ","diet_veget":" ","indoor_sea":" ","name_en":" ","website_me":" ","internet_3":" ","branch":" ","cash_withd":" ","diet_halal":" ","diet_koshe":" ","toilets_ac":" ","payment_ma":" ","payment_vi":" ","contact_in":" ","ref":" ","atm":" ","descriptio":" ","drive_thro":" ","contact__1":" ","contact_mo":" ","int_name":" ","guest_hous":" ","check_da_2":" ","diet_vegan":" ","highchair":" ","takeaway":" ","official_n":" ","leisure":" ","operator_w":" ","operator_1":" ","alt_name":" ","clothes":" ","payment__1":" ","name_zh":" ","ele":" ","lgbtq_crui":" ","lgbtq_men":" ","shop_1":" ","indoor":" ","payment_co":" ","payment_no":" ","vending":" ","charging_s":" ","diet_glute":" ","diet_local":" ","internet_4":" ","image":" ","operator_t":" "}},{"type":"Feature","id":30,"geometry":{"type":"Point","coordinates":[13.049640800000001,47.789072599999997]},"properties":{"FID":30,"F_id":"node/2291567338","addr_city":"Salzburg","addr_house":"8","addr_postc":"5020","addr_stree":"Peter-Singer-Gasse","building":" ","building_l":" ","internet_a":"wlan","internet_1":" ","name":"City Villa Wellhouse","phone":"+43 664 4250025","roof_shape":" ","stars":" ","tourism":"chalet","website":"https://www.holidaysun.at/de/chalets/city-villa-wellhouse/","operator":" ","rooms":" ","wheelchair":" ","wheelcha_1":" ","addr_count":"AT","beds":" ","breakfast":" ","check_date":"2024-06-30","contact_em":" ","contact_fa":" ","contact_ph":" ","contact_we":" ","cuisine":" ","kitchen_ho":" ","opening_ho":" ","outdoor_se":" ","smoking":" ","toilets_wh":" ","wikidata":" ","note":" ","at_bev_add":" ","email":" ","fax":" ","government":" ","office":" ","brand":" ","roof_level":" ","survey_dat":" ","amenity":" ","brand_wiki":" ","brand_wi_1":" ","compressed":" ","fuel_diese":" ","fuel_octan":" ","fuel_oct_1":" ","shop":" ","building_1":" ","source":" ","addr_hou_1":" ","bett_and_b":" ","bettundbik":" ","air_condit":" ","capacity":" ","dog":" ","fee":" ","lit":" ","power_supp":" ","sanitary_d":" ","sanitary_1":" ","sanitary_2":" ","shower":" ","tents":" ","toilets":" ","water_poin":" ","level":" ","wikimedia_":" ","wikipedia":" ","check_da_1":" ","payment_cr":" ","organic":" ","internet_2":" ","bar":" ","payment_ca":" ","payment_de":" ","reservatio":" ","diet_veget":" ","indoor_sea":" ","name_en":" ","website_me":" ","internet_3":" ","branch":" ","cash_withd":" ","diet_halal":" ","diet_koshe":" ","toilets_ac":" ","payment_ma":" ","payment_vi":" ","contact_in":"holidaysun.at","ref":" ","atm":" ","descriptio":" ","drive_thro":" ","contact__1":"holidaysun.at","contact_mo":" ","int_name":" ","guest_hous":" ","check_da_2":" ","diet_vegan":" ","highchair":" ","takeaway":" ","official_n":" ","leisure":" ","operator_w":" ","operator_1":" ","alt_name":" ","clothes":" ","payment__1":" ","name_zh":" ","ele":" ","lgbtq_crui":" ","lgbtq_men":" ","shop_1":" ","indoor":" ","payment_co":" ","payment_no":" ","vending":" ","charging_s":" ","diet_glute":" ","diet_local":" ","internet_4":" ","image":" ","operator_t":" "}},{"type":"Feature","id":31,"geometry":{"type":"Point","coordinates":[13.0428601,47.807174199999999]},"properties":{"FID":31,"F_id":"node/2316914795","addr_city":"Salzburg","addr_house":"3","addr_postc":"5020","addr_stree":"Franz-Josef-Straße","building":" ","building_l":" ","internet_a":"wlan","internet_1":" ","name":"The Heart of Joy Cafe","phone":"+43662890773","roof_shape":" ","stars":" ","tourism":" ","website":"https://www.heartofjoy.at/","operator":" ","rooms":" ","wheelchair":"no","wheelcha_1":" ","addr_count":"AT","beds":" ","breakfast":" ","check_date":"2024-04-21","contact_em":" ","contact_fa":" ","contact_ph":" ","contact_we":" ","cuisine":"sandwich;salad","kitchen_ho":" ","opening_ho":"Mo-Th 08:00-19:00; Fr-Su 08:00-20:30","outdoor_se":"yes","smoking":" ","toilets_wh":" ","wikidata":" ","note":" ","at_bev_add":" ","email":"info@heartofjoy.at","fax":" ","government":" ","office":" ","brand":" ","roof_level":" ","survey_dat":" ","amenity":"cafe","brand_wiki":" ","brand_wi_1":" ","compressed":" ","fuel_diese":" ","fuel_octan":" ","fuel_oct_1":" ","shop":" ","building_1":" ","source":"survey","addr_hou_1":" ","bett_and_b":" ","bettundbik":" ","air_condit":" ","capacity":" ","dog":" ","fee":" ","lit":" ","power_supp":" ","sanitary_d":" ","sanitary_1":" ","sanitary_2":" ","shower":" ","tents":" ","toilets":" ","water_poin":" ","level":" ","wikimedia_":" ","wikipedia":" ","check_da_1":" ","payment_cr":"yes","organic":" ","internet_2":" ","bar":" ","payment_ca":"yes","payment_de":"yes","reservatio":" ","diet_veget":"only","indoor_sea":"yes","name_en":" ","website_me":" ","internet_3":" ","branch":" ","cash_withd":" ","diet_halal":" ","diet_koshe":" ","toilets_ac":" ","payment_ma":" ","payment_vi":" ","contact_in":" ","ref":" ","atm":" ","descriptio":" ","drive_thro":"no","contact__1":" ","contact_mo":" ","int_name":" ","guest_hous":" ","check_da_2":" ","diet_vegan":"yes","highchair":"yes","takeaway":"yes","official_n":" ","leisure":" ","operator_w":" ","operator_1":" ","alt_name":" ","clothes":" ","payment__1":" ","name_zh":" ","ele":" ","lgbtq_crui":" ","lgbtq_men":" ","shop_1":" ","indoor":" ","payment_co":" ","payment_no":" ","vending":" ","charging_s":" ","diet_glute":" ","diet_local":" ","internet_4":" ","image":" ","operator_t":" "}},{"type":"Feature","id":32,"geometry":{"type":"Point","coordinates":[13.037584600000001,47.8104236]},"properties":{"FID":32,"F_id":"node/2507740760","addr_city":"Salzburg","addr_house":"58-60","addr_postc":"5020","addr_stree":"Elisabethkai","building":" ","building_l":" ","internet_a":"wlan","internet_1":"no","name":"Motel One Salzburg-Mirabell","phone":" ","roof_shape":" ","stars":" ","tourism":"hotel","website":"https://www.motel-one.com/de/hotels/salzburg/","operator":" ","rooms":" ","wheelchair":"yes","wheelcha_1":" ","addr_count":"AT","beds":" ","breakfast":" ","check_date":" ","contact_em":"salzburg-mirabell@motel-one.com","contact_fa":" ","contact_ph":"+43 662 885200","contact_we":" ","cuisine":" ","kitchen_ho":" ","opening_ho":" ","outdoor_se":" ","smoking":"no","toilets_wh":" ","wikidata":" ","note":" ","at_bev_add":" ","email":" ","fax":" ","government":" ","office":" ","brand":"Motel One","roof_level":" ","survey_dat":" ","amenity":" ","brand_wiki":"Q391080","brand_wi_1":"en:Motel One","compressed":" ","fuel_diese":" ","fuel_octan":" ","fuel_oct_1":" ","shop":" ","building_1":" ","source":" ","addr_hou_1":" ","bett_and_b":" ","bettundbik":" ","air_condit":" ","capacity":" ","dog":" ","fee":" ","lit":" ","power_supp":" ","sanitary_d":" ","sanitary_1":" ","sanitary_2":" ","shower":" ","tents":" ","toilets":" ","water_poin":" ","level":" ","wikimedia_":" ","wikipedia":" ","check_da_1":" ","payment_cr":" ","organic":" ","internet_2":" ","bar":"yes","payment_ca":" ","payment_de":" ","reservatio":" ","diet_veget":" ","indoor_sea":" ","name_en":" ","website_me":" ","internet_3":" ","branch":" ","cash_withd":" ","diet_halal":" ","diet_koshe":" ","toilets_ac":" ","payment_ma":" ","payment_vi":" ","contact_in":" ","ref":" ","atm":" ","descriptio":" ","drive_thro":" ","contact__1":" ","contact_mo":" ","int_name":" ","guest_hous":" ","check_da_2":" ","diet_vegan":" ","highchair":" ","takeaway":" ","official_n":" ","leisure":" ","operator_w":" ","operator_1":" ","alt_name":" ","clothes":" ","payment__1":" ","name_zh":" ","ele":" ","lgbtq_crui":" ","lgbtq_men":" ","shop_1":" ","indoor":" ","payment_co":" ","payment_no":" ","vending":" ","charging_s":" ","diet_glute":" ","diet_local":" ","internet_4":" ","image":" ","operator_t":" "}},{"type":"Feature","id":33,"geometry":{"type":"Point","coordinates":[13.064275200000001,47.809320100000001]},"properties":{"FID":33,"F_id":"node/2551706674","addr_city":"Salzburg","addr_house":"6","addr_postc":"5020","addr_stree":"Ignaz-Härtl-Straße","building":" ","building_l":" ","internet_a":"wlan","internet_1":"customers","name":"Best Western Plus Amedia Art Salzburg","phone":"+43 662 650 100","roof_shape":" ","stars":"4","tourism":"hotel","website":"https://plazahotels.de/hotel-salzburg/","operator":" ","rooms":"101","wheelchair":"yes","wheelcha_1":" ","addr_count":" ","beds":" ","breakfast":" ","check_date":" ","contact_em":" ","contact_fa":" ","contact_ph":" ","contact_we":" ","cuisine":" ","kitchen_ho":" ","opening_ho":" ","outdoor_se":" ","smoking":" ","toilets_wh":" ","wikidata":" ","note":" ","at_bev_add":" ","email":"salzburg@plazahotels.de","fax":" ","government":" ","office":" ","brand":"Best Western Plus","roof_level":" ","survey_dat":" ","amenity":" ","brand_wiki":"Q38623383","brand_wi_1":"en:Best Western","compressed":" ","fuel_diese":" ","fuel_octan":" ","fuel_oct_1":" ","shop":" ","building_1":" ","source":" ","addr_hou_1":" ","bett_and_b":" ","bettundbik":" ","air_condit":" ","capacity":" ","dog":" ","fee":" ","lit":" ","power_supp":" ","sanitary_d":" ","sanitary_1":" ","sanitary_2":" ","shower":" ","tents":" ","toilets":" ","water_poin":" ","level":" ","wikimedia_":" ","wikipedia":" ","check_da_1":" ","payment_cr":" ","organic":" ","internet_2":" ","bar":" ","payment_ca":" ","payment_de":" ","reservatio":" ","diet_veget":" ","indoor_sea":" ","name_en":" ","website_me":" ","internet_3":" ","branch":" ","cash_withd":" ","diet_halal":" ","diet_koshe":" ","toilets_ac":" ","payment_ma":" ","payment_vi":" ","contact_in":" ","ref":" ","atm":" ","descriptio":" ","drive_thro":" ","contact__1":" ","contact_mo":" ","int_name":" ","guest_hous":" ","check_da_2":" ","diet_vegan":" ","highchair":" ","takeaway":" ","official_n":"Aiden by Best Western","leisure":" ","operator_w":" ","operator_1":" ","alt_name":" ","clothes":" ","payment__1":" ","name_zh":" ","ele":" ","lgbtq_crui":" ","lgbtq_men":" ","shop_1":" ","indoor":" ","payment_co":" ","payment_no":" ","vending":" ","charging_s":" ","diet_glute":" ","diet_local":" ","internet_4":" ","image":" ","operator_t":" "}},{"type":"Feature","id":34,"geometry":{"type":"Point","coordinates":[13.038432800000001,47.8111064]},"properties":{"FID":34,"F_id":"node/2552995748","addr_city":"Salzburg","addr_house":"7","addr_postc":"5020","addr_stree":"Saint-Julien-Straße","building":" ","building_l":" ","internet_a":"wlan","internet_1":"no","name":"Plaza Inn Salzburg City","phone":"+43 662873121","roof_shape":" ","stars":"3","tourism":"hotel","website":"https://plazahotels.de/hotel-salzburg-city/","operator":" ","rooms":" ","wheelchair":" ","wheelcha_1":" ","addr_count":"AT","beds":" ","breakfast":" ","check_date":" ","contact_em":" ","contact_fa":" ","contact_ph":" ","contact_we":" ","cuisine":" ","kitchen_ho":" ","opening_ho":" ","outdoor_se":" ","smoking":"no","toilets_wh":" ","wikidata":" ","note":" ","at_bev_add":" ","email":"salzburgexpress@plazahotels.de","fax":" ","government":" ","office":" ","brand":" ","roof_level":" ","survey_dat":" ","amenity":" ","brand_wiki":" ","brand_wi_1":" ","compressed":" ","fuel_diese":" ","fuel_octan":" ","fuel_oct_1":" ","shop":" ","building_1":" ","source":" ","addr_hou_1":" ","bett_and_b":" ","bettundbik":" ","air_condit":" ","capacity":" ","dog":" ","fee":" ","lit":" ","power_supp":" ","sanitary_d":" ","sanitary_1":" ","sanitary_2":" ","shower":" ","tents":" ","toilets":" ","water_poin":" ","level":" ","wikimedia_":" ","wikipedia":" ","check_da_1":" ","payment_cr":" ","organic":" ","internet_2":" ","bar":" ","payment_ca":" ","payment_de":" ","reservatio":" ","diet_veget":" ","indoor_sea":" ","name_en":" ","website_me":" ","internet_3":" ","branch":" ","cash_withd":" ","diet_halal":" ","diet_koshe":" ","toilets_ac":" ","payment_ma":" ","payment_vi":" ","contact_in":" ","ref":" ","atm":" ","descriptio":" ","drive_thro":" ","contact__1":" ","contact_mo":" ","int_name":" ","guest_hous":" ","check_da_2":" ","diet_vegan":" ","highchair":" ","takeaway":" ","official_n":" ","leisure":" ","operator_w":" ","operator_1":" ","alt_name":" ","clothes":" ","payment__1":" ","name_zh":" ","ele":" ","lgbtq_crui":" ","lgbtq_men":" ","shop_1":" ","indoor":" ","payment_co":" ","payment_no":" ","vending":" ","charging_s":" ","diet_glute":" ","diet_local":" ","internet_4":" ","image":" ","operator_t":" "}},{"type":"Feature","id":35,"geometry":{"type":"Point","coordinates":[13.041618100000001,47.808715200000002]},"properties":{"FID":35,"F_id":"node/2821300438","addr_city":"Salzburg","addr_house":"14","addr_postc":"5020","addr_stree":"Rainerstraße","building":" ","building_l":" ","internet_a":"wlan","internet_1":"no","name":"Hotel IMLAUER & Bräu","phone":" ","roof_shape":" ","stars":"4","tourism":"hotel","website":" ","operator":"IMLAUER Hotels & Restaurants","rooms":" ","wheelchair":"yes","wheelcha_1":" ","addr_count":"AT","beds":" ","breakfast":" ","check_date":"2024-04-12","contact_em":" ","contact_fa":" ","contact_ph":" ","contact_we":" ","cuisine":" ","kitchen_ho":" ","opening_ho":" ","outdoor_se":" ","smoking":" ","toilets_wh":"yes","wikidata":" ","note":" ","at_bev_add":" ","email":" ","fax":" ","government":" ","office":" ","brand":" ","roof_level":" ","survey_dat":" ","amenity":" ","brand_wiki":" ","brand_wi_1":" ","compressed":" ","fuel_diese":" ","fuel_octan":" ","fuel_oct_1":" ","shop":" ","building_1":" ","source":" ","addr_hou_1":" ","bett_and_b":" ","bettundbik":" ","air_condit":" ","capacity":" ","dog":" ","fee":" ","lit":" ","power_supp":" ","sanitary_d":" ","sanitary_1":" ","sanitary_2":" ","shower":" ","tents":" ","toilets":" ","water_poin":" ","level":" ","wikimedia_":" ","wikipedia":" ","check_da_1":" ","payment_cr":" ","organic":" ","internet_2":" ","bar":" ","payment_ca":" ","payment_de":" ","reservatio":" ","diet_veget":" ","indoor_sea":" ","name_en":" ","website_me":" ","internet_3":" ","branch":" ","cash_withd":" ","diet_halal":" ","diet_koshe":" ","toilets_ac":" ","payment_ma":" ","payment_vi":" ","contact_in":" ","ref":" ","atm":" ","descriptio":" ","drive_thro":" ","contact__1":" ","contact_mo":" ","int_name":" ","guest_hous":" ","check_da_2":" ","diet_vegan":" ","highchair":" ","takeaway":" ","official_n":" ","leisure":" ","operator_w":" ","operator_1":" ","alt_name":" ","clothes":" ","payment__1":" ","name_zh":" ","ele":" ","lgbtq_crui":" ","lgbtq_men":" ","shop_1":" ","indoor":" ","payment_co":" ","payment_no":" ","vending":" ","charging_s":" ","diet_glute":" ","diet_local":" ","internet_4":" ","image":" ","operator_t":" "}},{"type":"Feature","id":36,"geometry":{"type":"Point","coordinates":[13.044903700000001,47.813724999999998]},"properties":{"FID":36,"F_id":"node/2909144004","addr_city":"Salzburg","addr_house":"13","addr_postc":"5020","addr_stree":"Südtiroler Platz","building":" ","building_l":" ","internet_a":"wlan","internet_1":" ","name":"Starbucks","phone":" ","roof_shape":" ","stars":" ","tourism":" ","website":" ","operator":" ","rooms":" ","wheelchair":"yes","wheelcha_1":" ","addr_count":" ","beds":" ","breakfast":" ","check_date":" ","contact_em":" ","contact_fa":" ","contact_ph":" ","contact_we":" ","cuisine":"coffee_shop","kitchen_ho":" ","opening_ho":"Mo-Fr 06:30-20:30; Sa 07:00-21:00; Su 08:00-20:00","outdoor_se":"yes","smoking":"outside","toilets_wh":" ","wikidata":" ","note":" ","at_bev_add":" ","email":" ","fax":" ","government":" ","office":" ","brand":"Starbucks","roof_level":" ","survey_dat":" ","amenity":"cafe","brand_wiki":"Q37158","brand_wi_1":"en:Starbucks","compressed":" ","fuel_diese":" ","fuel_octan":" ","fuel_oct_1":" ","shop":" ","building_1":" ","source":" ","addr_hou_1":" ","bett_and_b":" ","bettundbik":" ","air_condit":" ","capacity":" ","dog":" ","fee":" ","lit":" ","power_supp":" ","sanitary_d":" ","sanitary_1":" ","sanitary_2":" ","shower":" ","tents":" ","toilets":" ","water_poin":" ","level":"0","wikimedia_":" ","wikipedia":" ","check_da_1":" ","payment_cr":" ","organic":" ","internet_2":" ","bar":" ","payment_ca":" ","payment_de":" ","reservatio":" ","diet_veget":"yes","indoor_sea":"yes","name_en":" ","website_me":" ","internet_3":" ","branch":" ","cash_withd":" ","diet_halal":" ","diet_koshe":" ","toilets_ac":" ","payment_ma":" ","payment_vi":" ","contact_in":" ","ref":" ","atm":" ","descriptio":" ","drive_thro":" ","contact__1":" ","contact_mo":" ","int_name":" ","guest_hous":" ","check_da_2":" ","diet_vegan":"yes","highchair":" ","takeaway":"yes","official_n":"Starbucks Coffee","leisure":" ","operator_w":" ","operator_1":" ","alt_name":" ","clothes":" ","payment__1":" ","name_zh":" ","ele":" ","lgbtq_crui":" ","lgbtq_men":" ","shop_1":" ","indoor":" ","payment_co":" ","payment_no":" ","vending":" ","charging_s":" ","diet_glute":" ","diet_local":" ","internet_4":" ","image":" ","operator_t":" "}},{"type":"Feature","id":37,"geometry":{"type":"Point","coordinates":[13.041771900000001,47.813564100000001]},"properties":{"FID":37,"F_id":"node/3195314913","addr_city":"Salzburg","addr_house":"25","addr_postc":"5020","addr_stree":"Elisabethstraße","building":" ","building_l":" ","internet_a":"wlan","internet_1":" ","name":"Adlerhof","phone":"+43662875236","roof_shape":" ","stars":"2","tourism":"guest_house","website":"http://gosalzburg.com","operator":" ","rooms":" ","wheelchair":" ","wheelcha_1":" ","addr_count":"AT","beds":" ","breakfast":" ","check_date":" ","contact_em":"adlerhof@pension-adlerhof.at","contact_fa":"+43 662 873663","contact_ph":"+43 662 875236","contact_we":"http://www.gosalzburg.com","cuisine":" ","kitchen_ho":" ","opening_ho":" ","outdoor_se":" ","smoking":" ","toilets_wh":" ","wikidata":" ","note":" ","at_bev_add":" ","email":"adlerhof@pension-adlerhof.at","fax":" ","government":" ","office":" ","brand":" ","roof_level":" ","survey_dat":" ","amenity":" ","brand_wiki":" ","brand_wi_1":" ","compressed":" ","fuel_diese":" ","fuel_octan":" ","fuel_oct_1":" ","shop":" ","building_1":" ","source":" ","addr_hou_1":" ","bett_and_b":"SBG-504","bettundbik":"yes","air_condit":" ","capacity":" ","dog":" ","fee":" ","lit":" ","power_supp":" ","sanitary_d":" ","sanitary_1":" ","sanitary_2":" ","shower":" ","tents":" ","toilets":" ","water_poin":" ","level":" ","wikimedia_":" ","wikipedia":" ","check_da_1":" ","payment_cr":" ","organic":" ","internet_2":" ","bar":" ","payment_ca":" ","payment_de":" ","reservatio":" ","diet_veget":" ","indoor_sea":" ","name_en":" ","website_me":" ","internet_3":" ","branch":" ","cash_withd":" ","diet_halal":" ","diet_koshe":" ","toilets_ac":" ","payment_ma":" ","payment_vi":" ","contact_in":" ","ref":" ","atm":" ","descriptio":" ","drive_thro":" ","contact__1":" ","contact_mo":" ","int_name":" ","guest_hous":" ","check_da_2":" ","diet_vegan":" ","highchair":" ","takeaway":" ","official_n":" ","leisure":" ","operator_w":" ","operator_1":" ","alt_name":" ","clothes":" ","payment__1":" ","name_zh":" ","ele":" ","lgbtq_crui":" ","lgbtq_men":" ","shop_1":" ","indoor":" ","payment_co":" ","payment_no":" ","vending":" ","charging_s":" ","diet_glute":" ","diet_local":" ","internet_4":" ","image":" ","operator_t":" "}},{"type":"Feature","id":38,"geometry":{"type":"Point","coordinates":[13.0688058,47.814711699999997]},"properties":{"FID":38,"F_id":"node/3413156499","addr_city":"Salzburg-Gnigl","addr_house":"33","addr_postc":"5020","addr_stree":"Linzer Bundesstraße","building":" ","building_l":" ","internet_a":"wlan","internet_1":"no","name":"Virtual Escape Salzburg","phone":" ","roof_shape":" ","stars":" ","tourism":" ","website":"https://virtual-escape.at","operator":" ","rooms":" ","wheelchair":" ","wheelcha_1":" ","addr_count":" ","beds":" ","breakfast":" ","check_date":" ","contact_em":" ","contact_fa":" ","contact_ph":" ","contact_we":" ","cuisine":" ","kitchen_ho":" ","opening_ho":"Mo-Fr 14:30-22:00; Sa-Su 12:30-22:00","outdoor_se":" ","smoking":" ","toilets_wh":" ","wikidata":" ","note":" ","at_bev_add":" ","email":" ","fax":" ","government":" ","office":" ","brand":" ","roof_level":" ","survey_dat":" ","amenity":" ","brand_wiki":" ","brand_wi_1":" ","compressed":" ","fuel_diese":" ","fuel_octan":" ","fuel_oct_1":" ","shop":" ","building_1":" ","source":" ","addr_hou_1":" ","bett_and_b":" ","bettundbik":" ","air_condit":" ","capacity":" ","dog":" ","fee":" ","lit":" ","power_supp":" ","sanitary_d":" ","sanitary_1":" ","sanitary_2":" ","shower":" ","tents":" ","toilets":" ","water_poin":" ","level":" ","wikimedia_":" ","wikipedia":" ","check_da_1":" ","payment_cr":" ","organic":" ","internet_2":" ","bar":" ","payment_ca":" ","payment_de":" ","reservatio":" ","diet_veget":" ","indoor_sea":" ","name_en":" ","website_me":" ","internet_3":" ","branch":" ","cash_withd":" ","diet_halal":" ","diet_koshe":" ","toilets_ac":" ","payment_ma":" ","payment_vi":" ","contact_in":" ","ref":" ","atm":" ","descriptio":" ","drive_thro":" ","contact__1":" ","contact_mo":" ","int_name":" ","guest_hous":" ","check_da_2":" ","diet_vegan":" ","highchair":" ","takeaway":" ","official_n":" ","leisure":"escape_game","operator_w":" ","operator_1":" ","alt_name":" ","clothes":" ","payment__1":" ","name_zh":" ","ele":" ","lgbtq_crui":" ","lgbtq_men":" ","shop_1":" ","indoor":" ","payment_co":" ","payment_no":" ","vending":" ","charging_s":" ","diet_glute":" ","diet_local":" ","internet_4":" ","image":" ","operator_t":" "}},{"type":"Feature","id":39,"geometry":{"type":"Point","coordinates":[13.048321400000001,47.804401800000001]},"properties":{"FID":39,"F_id":"node/3618343209","addr_city":"Salzburg","addr_house":"1","addr_postc":"5020","addr_stree":"Wolf-Dietrich-Straße","building":" ","building_l":" ","internet_a":"wlan","internet_1":" ","name":"Bio Bistro Spicy Spices","phone":"+43 662 870712","roof_shape":" ","stars":" ","tourism":" ","website":" ","operator":" ","rooms":" ","wheelchair":"no","wheelcha_1":" ","addr_count":" ","beds":" ","breakfast":" ","check_date":"2024-05-06","contact_em":" ","contact_fa":" ","contact_ph":" ","contact_we":" ","cuisine":"indian;organic","kitchen_ho":" ","opening_ho":"Mo-Su 11:00-21:00","outdoor_se":"yes","smoking":"no","toilets_wh":" ","wikidata":" ","note":" ","at_bev_add":" ","email":" ","fax":" ","government":" ","office":" ","brand":" ","roof_level":" ","survey_dat":" ","amenity":"restaurant","brand_wiki":" ","brand_wi_1":" ","compressed":" ","fuel_diese":" ","fuel_octan":" ","fuel_oct_1":" ","shop":" ","building_1":" ","source":"survey","addr_hou_1":" ","bett_and_b":" ","bettundbik":" ","air_condit":" ","capacity":" ","dog":" ","fee":" ","lit":" ","power_supp":" ","sanitary_d":" ","sanitary_1":" ","sanitary_2":" ","shower":" ","tents":" ","toilets":" ","water_poin":" ","level":" ","wikimedia_":" ","wikipedia":" ","check_da_1":" ","payment_cr":" ","organic":" ","internet_2":" ","bar":" ","payment_ca":" ","payment_de":" ","reservatio":" ","diet_veget":"only","indoor_sea":"yes","name_en":" ","website_me":" ","internet_3":" ","branch":" ","cash_withd":" ","diet_halal":" ","diet_koshe":" ","toilets_ac":" ","payment_ma":" ","payment_vi":" ","contact_in":" ","ref":" ","atm":" ","descriptio":" ","drive_thro":" ","contact__1":" ","contact_mo":" ","int_name":" ","guest_hous":" ","check_da_2":" ","diet_vegan":"yes","highchair":" ","takeaway":"yes","official_n":" ","leisure":" ","operator_w":" ","operator_1":" ","alt_name":" ","clothes":" ","payment__1":" ","name_zh":" ","ele":" ","lgbtq_crui":" ","lgbtq_men":" ","shop_1":" ","indoor":" ","payment_co":" ","payment_no":" ","vending":" ","charging_s":" ","diet_glute":" ","diet_local":" ","internet_4":" ","image":" ","operator_t":" "}},{"type":"Feature","id":40,"geometry":{"type":"Point","coordinates":[13.049293799999999,47.7969589]},"properties":{"FID":40,"F_id":"node/3827253857","addr_city":"Salzburg","addr_house":"33","addr_postc":"5020","addr_stree":"Kaigasse","building":" ","building_l":" ","internet_a":"wlan","internet_1":" ","name":"Kasererbraeu","phone":"+43 662 842445-51","roof_shape":" ","stars":"4","tourism":"hotel","website":"https://www.kasererbraeu.at/","operator":" ","rooms":" ","wheelchair":" ","wheelcha_1":" ","addr_count":"AT","beds":" ","breakfast":" ","check_date":" ","contact_em":" ","contact_fa":" ","contact_ph":" ","contact_we":" ","cuisine":" ","kitchen_ho":" ","opening_ho":" ","outdoor_se":" ","smoking":"outside","toilets_wh":" ","wikidata":" ","note":" ","at_bev_add":" ","email":"info@kasererbraeu.at","fax":" ","government":" ","office":" ","brand":" ","roof_level":" ","survey_dat":" ","amenity":" ","brand_wiki":" ","brand_wi_1":" ","compressed":" ","fuel_diese":" ","fuel_octan":" ","fuel_oct_1":" ","shop":" ","building_1":" ","source":" ","addr_hou_1":" ","bett_and_b":" ","bettundbik":" ","air_condit":" ","capacity":" ","dog":" ","fee":" ","lit":" ","power_supp":" ","sanitary_d":" ","sanitary_1":" ","sanitary_2":" ","shower":" ","tents":" ","toilets":" ","water_poin":" ","level":" ","wikimedia_":" ","wikipedia":" ","check_da_1":" ","payment_cr":" ","organic":" ","internet_2":" ","bar":" ","payment_ca":" ","payment_de":" ","reservatio":" ","diet_veget":" ","indoor_sea":" ","name_en":" ","website_me":" ","internet_3":" ","branch":" ","cash_withd":" ","diet_halal":" ","diet_koshe":" ","toilets_ac":" ","payment_ma":" ","payment_vi":" ","contact_in":" ","ref":" ","atm":" ","descriptio":" ","drive_thro":" ","contact__1":" ","contact_mo":" ","int_name":" ","guest_hous":" ","check_da_2":" ","diet_vegan":" ","highchair":" ","takeaway":" ","official_n":" ","leisure":" ","operator_w":" ","operator_1":" ","alt_name":" ","clothes":" ","payment__1":" ","name_zh":" ","ele":" ","lgbtq_crui":" ","lgbtq_men":" ","shop_1":" ","indoor":" ","payment_co":" ","payment_no":" ","vending":" ","charging_s":" ","diet_glute":" ","diet_local":" ","internet_4":" ","image":" ","operator_t":" "}},{"type":"Feature","id":41,"geometry":{"type":"Point","coordinates":[13.0273611,47.813313200000003]},"properties":{"FID":41,"F_id":"node/4114250186","addr_city":"Salzburg","addr_house":"14","addr_postc":"5020","addr_stree":"Schumacherstraße","building":" ","building_l":" ","internet_a":"wlan","internet_1":" ","name":"Panoramabar","phone":" ","roof_shape":" ","stars":" ","tourism":" ","website":" ","operator":"Evangelisches Diakoniewerk Gallneukirchen","rooms":" ","wheelchair":"yes","wheelcha_1":" ","addr_count":"AT","beds":" ","breakfast":" ","check_date":" ","contact_em":"kowalski.panoramabar@diakoniewerk.at","contact_fa":" ","contact_ph":"+43 664 45 64 350","contact_we":"https://www.cafe-kowalski.at/standorte-speisekarten/lehenpanoramabar","cuisine":"coffee_shop","kitchen_ho":" ","opening_ho":"Mo 10:00-18:00; Tu-We 15:00-19:00; Th-Fr 10:00-18:00; Sa 10:00-15:00; Su off","outdoor_se":"no","smoking":" ","toilets_wh":" ","wikidata":" ","note":" ","at_bev_add":" ","email":" ","fax":" ","government":" ","office":" ","brand":" ","roof_level":" ","survey_dat":" ","amenity":"cafe","brand_wiki":" ","brand_wi_1":" ","compressed":" ","fuel_diese":" ","fuel_octan":" ","fuel_oct_1":" ","shop":" ","building_1":" ","source":" ","addr_hou_1":" ","bett_and_b":" ","bettundbik":" ","air_condit":" ","capacity":" ","dog":" ","fee":" ","lit":" ","power_supp":" ","sanitary_d":" ","sanitary_1":" ","sanitary_2":" ","shower":" ","tents":" ","toilets":" ","water_poin":" ","level":" ","wikimedia_":" ","wikipedia":" ","check_da_1":" ","payment_cr":" ","organic":" ","internet_2":" ","bar":" ","payment_ca":" ","payment_de":" ","reservatio":" ","diet_veget":"yes","indoor_sea":"yes","name_en":" ","website_me":"https://www.cafe-kowalski.at/sites/default/files/kowalski_panoramabar_speisekarte_web.pdf","internet_3":" ","branch":" ","cash_withd":" ","diet_halal":" ","diet_koshe":" ","toilets_ac":" ","payment_ma":" ","payment_vi":" ","contact_in":" ","ref":" ","atm":" ","descriptio":" ","drive_thro":" ","contact__1":"https://www.facebook.com/PanoramabarSalzburg","contact_mo":" ","int_name":" ","guest_hous":" ","check_da_2":" ","diet_vegan":"no","highchair":" ","takeaway":"yes","official_n":" ","leisure":" ","operator_w":"Q1304849","operator_1":"de:Evangelisches Diakoniewerk Gallneukirchen","alt_name":" ","clothes":" ","payment__1":" ","name_zh":" ","ele":" ","lgbtq_crui":" ","lgbtq_men":" ","shop_1":" ","indoor":" ","payment_co":" ","payment_no":" ","vending":" ","charging_s":" ","diet_glute":" ","diet_local":" ","internet_4":" ","image":" ","operator_t":" "}},{"type":"Feature","id":42,"geometry":{"type":"Point","coordinates":[13.0467262,47.7997145]},"properties":{"FID":42,"F_id":"node/4145021208","addr_city":"Salzburg","addr_house":"15","addr_postc":"5020","addr_stree":"Judengasse","building":" ","building_l":" ","internet_a":"wlan","internet_1":" ","name":"Radisson Blu Altstadt Hotel","phone":"+43 662 84 85 71 0","roof_shape":" ","stars":"5","tourism":"hotel","website":"https://www.radissonhotels.com/de-de/hotels/radisson-blu-salzburg-altstadt/kontakt","operator":" ","rooms":"62","wheelchair":"yes","wheelcha_1":" ","addr_count":"AT","beds":" ","breakfast":" ","check_date":" ","contact_em":" ","contact_fa":" ","contact_ph":" ","contact_we":" ","cuisine":" ","kitchen_ho":" ","opening_ho":" ","outdoor_se":" ","smoking":" ","toilets_wh":" ","wikidata":" ","note":" ","at_bev_add":" ","email":"info.altstadt@radissonblu.com","fax":" ","government":" ","office":" ","brand":"Radisson Blu","roof_level":" ","survey_dat":" ","amenity":" ","brand_wiki":"Q7281341","brand_wi_1":" ","compressed":" ","fuel_diese":" ","fuel_octan":" ","fuel_oct_1":" ","shop":" ","building_1":" ","source":" ","addr_hou_1":" ","bett_and_b":" ","bettundbik":" ","air_condit":" ","capacity":" ","dog":" ","fee":" ","lit":" ","power_supp":" ","sanitary_d":" ","sanitary_1":" ","sanitary_2":" ","shower":" ","tents":" ","toilets":" ","water_poin":" ","level":" ","wikimedia_":" ","wikipedia":" ","check_da_1":" ","payment_cr":" ","organic":" ","internet_2":" ","bar":"yes","payment_ca":" ","payment_de":" ","reservatio":"recommended","diet_veget":" ","indoor_sea":" ","name_en":" ","website_me":" ","internet_3":" ","branch":" ","cash_withd":" ","diet_halal":" ","diet_koshe":" ","toilets_ac":" ","payment_ma":" ","payment_vi":" ","contact_in":" ","ref":" ","atm":" ","descriptio":" ","drive_thro":" ","contact__1":" ","contact_mo":" ","int_name":" ","guest_hous":" ","check_da_2":" ","diet_vegan":" ","highchair":" ","takeaway":" ","official_n":" ","leisure":" ","operator_w":" ","operator_1":" ","alt_name":"Radisson Blu Salzburg","clothes":" ","payment__1":" ","name_zh":" ","ele":" ","lgbtq_crui":" ","lgbtq_men":" ","shop_1":" ","indoor":" ","payment_co":" ","payment_no":" ","vending":" ","charging_s":" ","diet_glute":" ","diet_local":" ","internet_4":" ","image":" ","operator_t":" "}},{"type":"Feature","id":43,"geometry":{"type":"Point","coordinates":[13.0445441,47.799631099999999]},"properties":{"FID":43,"F_id":"node/4186464490","addr_city":"Salzburg","addr_house":"5","addr_postc":"5020","addr_stree":"Sigmund-Haffner-Gasse","building":" ","building_l":" ","internet_a":"wlan","internet_1":" ","name":"Diva by makole","phone":"+43662848073","roof_shape":" ","stars":" ","tourism":" ","website":"http://www.makole.at","operator":" ","rooms":" ","wheelchair":" ","wheelcha_1":" ","addr_count":"AT","beds":" ","breakfast":" ","check_date":"2023-08-10","contact_em":" ","contact_fa":" ","contact_ph":" ","contact_we":" ","cuisine":" ","kitchen_ho":" ","opening_ho":"Mo-Sa 10:00-18:00","outdoor_se":" ","smoking":" ","toilets_wh":" ","wikidata":" ","note":" ","at_bev_add":" ","email":" ","fax":" ","government":" ","office":" ","brand":" ","roof_level":" ","survey_dat":" ","amenity":" ","brand_wiki":" ","brand_wi_1":" ","compressed":" ","fuel_diese":" ","fuel_octan":" ","fuel_oct_1":" ","shop":"clothes","building_1":" ","source":" ","addr_hou_1":" ","bett_and_b":" ","bettundbik":" ","air_condit":" ","capacity":" ","dog":" ","fee":" ","lit":" ","power_supp":" ","sanitary_d":" ","sanitary_1":" ","sanitary_2":" ","shower":" ","tents":" ","toilets":" ","water_poin":" ","level":" ","wikimedia_":" ","wikipedia":" ","check_da_1":" ","payment_cr":"yes","organic":" ","internet_2":" ","bar":" ","payment_ca":"yes","payment_de":" ","reservatio":" ","diet_veget":" ","indoor_sea":" ","name_en":"Lady fashion","website_me":" ","internet_3":" ","branch":" ","cash_withd":" ","diet_halal":" ","diet_koshe":" ","toilets_ac":" ","payment_ma":"yes","payment_vi":"yes","contact_in":" ","ref":" ","atm":" ","descriptio":" ","drive_thro":" ","contact__1":" ","contact_mo":" ","int_name":" ","guest_hous":" ","check_da_2":" ","diet_vegan":" ","highchair":" ","takeaway":" ","official_n":" ","leisure":" ","operator_w":" ","operator_1":" ","alt_name":" ","clothes":"fashion;women","payment__1":"yes","name_zh":" ","ele":" ","lgbtq_crui":" ","lgbtq_men":" ","shop_1":" ","indoor":" ","payment_co":" ","payment_no":" ","vending":" ","charging_s":" ","diet_glute":" ","diet_local":" ","internet_4":" ","image":" ","operator_t":" "}},{"type":"Feature","id":44,"geometry":{"type":"Point","coordinates":[13.0488099,47.797406299999999]},"properties":{"FID":44,"F_id":"node/4209868189","addr_city":"Salzburg","addr_house":"11","addr_postc":"5020","addr_stree":"Kapitelgasse","building":" ","building_l":" ","internet_a":"wlan","internet_1":" ","name":"Wokman","phone":" ","roof_shape":" ","stars":" ","tourism":" ","website":" ","operator":" ","rooms":" ","wheelchair":"limited","wheelcha_1":" ","addr_count":"AT","beds":" ","breakfast":" ","check_date":" ","contact_em":" ","contact_fa":" ","contact_ph":" ","contact_we":" ","cuisine":"asian;vietnamese","kitchen_ho":" ","opening_ho":"Mo-Sa 11:30-21:00","outdoor_se":"no","smoking":" ","toilets_wh":" ","wikidata":" ","note":" ","at_bev_add":" ","email":" ","fax":" ","government":" ","office":" ","brand":" ","roof_level":" ","survey_dat":" ","amenity":"restaurant","brand_wiki":" ","brand_wi_1":" ","compressed":" ","fuel_diese":" ","fuel_octan":" ","fuel_oct_1":" ","shop":" ","building_1":" ","source":" ","addr_hou_1":" ","bett_and_b":" ","bettundbik":" ","air_condit":" ","capacity":" ","dog":" ","fee":" ","lit":" ","power_supp":" ","sanitary_d":" ","sanitary_1":" ","sanitary_2":" ","shower":" ","tents":" ","toilets":" ","water_poin":" ","level":" ","wikimedia_":" ","wikipedia":" ","check_da_1":"2023-05-20","payment_cr":" ","organic":" ","internet_2":" ","bar":" ","payment_ca":" ","payment_de":" ","reservatio":" ","diet_veget":" ","indoor_sea":"yes","name_en":" ","website_me":" ","internet_3":" ","branch":" ","cash_withd":" ","diet_halal":" ","diet_koshe":" ","toilets_ac":" ","payment_ma":" ","payment_vi":" ","contact_in":" ","ref":" ","atm":" ","descriptio":" ","drive_thro":" ","contact__1":" ","contact_mo":" ","int_name":" ","guest_hous":" ","check_da_2":" ","diet_vegan":" ","highchair":" ","takeaway":" ","official_n":" ","leisure":" ","operator_w":" ","operator_1":" ","alt_name":" ","clothes":" ","payment__1":" ","name_zh":" ","ele":" ","lgbtq_crui":" ","lgbtq_men":" ","shop_1":" ","indoor":" ","payment_co":" ","payment_no":" ","vending":" ","charging_s":" ","diet_glute":" ","diet_local":" ","internet_4":" ","image":" ","operator_t":" "}},{"type":"Feature","id":45,"geometry":{"type":"Point","coordinates":[13.0410714,47.822566999999999]},"properties":{"FID":45,"F_id":"node/4259650592","addr_city":" ","addr_house":" ","addr_postc":" ","addr_stree":" ","building":" ","building_l":" ","internet_a":"wlan","internet_1":" ","name":" ","phone":" ","roof_shape":" ","stars":" ","tourism":" ","website":" ","operator":"Eduroam point","rooms":" ","wheelchair":" ","wheelcha_1":" ","addr_count":" ","beds":" ","breakfast":" ","check_date":" ","contact_em":" ","contact_fa":" ","contact_ph":" ","contact_we":" ","cuisine":" ","kitchen_ho":" ","opening_ho":" ","outdoor_se":" ","smoking":" ","toilets_wh":" ","wikidata":" ","note":" ","at_bev_add":" ","email":" ","fax":" ","government":" ","office":" ","brand":" ","roof_level":" ","survey_dat":" ","amenity":" ","brand_wiki":" ","brand_wi_1":" ","compressed":" ","fuel_diese":" ","fuel_octan":" ","fuel_oct_1":" ","shop":" ","building_1":" ","source":" ","addr_hou_1":" ","bett_and_b":" ","bettundbik":" ","air_condit":" ","capacity":" ","dog":" ","fee":" ","lit":" ","power_supp":" ","sanitary_d":" ","sanitary_1":" ","sanitary_2":" ","shower":" ","tents":" ","toilets":" ","water_poin":" ","level":" ","wikimedia_":" ","wikipedia":" ","check_da_1":" ","payment_cr":" ","organic":" ","internet_2":" ","bar":" ","payment_ca":" ","payment_de":" ","reservatio":" ","diet_veget":" ","indoor_sea":" ","name_en":" ","website_me":" ","internet_3":" ","branch":" ","cash_withd":" ","diet_halal":" ","diet_koshe":" ","toilets_ac":" ","payment_ma":" ","payment_vi":" ","contact_in":" ","ref":" ","atm":" ","descriptio":" ","drive_thro":" ","contact__1":" ","contact_mo":" ","int_name":" ","guest_hous":" ","check_da_2":" ","diet_vegan":" ","highchair":" ","takeaway":" ","official_n":" ","leisure":" ","operator_w":" ","operator_1":" ","alt_name":" ","clothes":" ","payment__1":" ","name_zh":" ","ele":" ","lgbtq_crui":" ","lgbtq_men":" ","shop_1":" ","indoor":" ","payment_co":" ","payment_no":" ","vending":" ","charging_s":" ","diet_glute":" ","diet_local":" ","internet_4":" ","image":" ","operator_t":" "}},{"type":"Feature","id":46,"geometry":{"type":"Point","coordinates":[13.049713799999999,47.781720999999997]},"properties":{"FID":46,"F_id":"node/4281605402","addr_city":"Salzburg","addr_house":"85","addr_postc":"5020","addr_stree":"Nonntaler Hauptstraße","building":" ","building_l":" ","internet_a":"wlan","internet_1":"customers","name":"Hotel Pension Herbert","phone":"+43 662 820308","roof_shape":" ","stars":" ","tourism":"hotel","website":"https://www.pension-herbert.at/","operator":" ","rooms":" ","wheelchair":"no","wheelcha_1":" ","addr_count":"AT","beds":" ","breakfast":" ","check_date":" ","contact_em":" ","contact_fa":" ","contact_ph":" ","contact_we":" ","cuisine":" ","kitchen_ho":" ","opening_ho":"Mo-Su 08:00-21:00","outdoor_se":" ","smoking":" ","toilets_wh":" ","wikidata":" ","note":" ","at_bev_add":" ","email":"info@pension-herbert.at","fax":" ","government":" ","office":" ","brand":" ","roof_level":" ","survey_dat":" ","amenity":" ","brand_wiki":" ","brand_wi_1":" ","compressed":" ","fuel_diese":" ","fuel_octan":" ","fuel_oct_1":" ","shop":" ","building_1":" ","source":" ","addr_hou_1":" ","bett_and_b":" ","bettundbik":" ","air_condit":"no","capacity":" ","dog":" ","fee":" ","lit":" ","power_supp":" ","sanitary_d":" ","sanitary_1":" ","sanitary_2":" ","shower":" ","tents":" ","toilets":" ","water_poin":" ","level":" ","wikimedia_":" ","wikipedia":" ","check_da_1":" ","payment_cr":" ","organic":" ","internet_2":" ","bar":" ","payment_ca":" ","payment_de":" ","reservatio":" ","diet_veget":" ","indoor_sea":" ","name_en":" ","website_me":" ","internet_3":" ","branch":" ","cash_withd":" ","diet_halal":" ","diet_koshe":" ","toilets_ac":" ","payment_ma":" ","payment_vi":" ","contact_in":" ","ref":" ","atm":" ","descriptio":" ","drive_thro":" ","contact__1":" ","contact_mo":" ","int_name":" ","guest_hous":" ","check_da_2":" ","diet_vegan":" ","highchair":" ","takeaway":" ","official_n":" ","leisure":" ","operator_w":" ","operator_1":" ","alt_name":" ","clothes":" ","payment__1":" ","name_zh":" ","ele":" ","lgbtq_crui":" ","lgbtq_men":" ","shop_1":" ","indoor":" ","payment_co":" ","payment_no":" ","vending":" ","charging_s":" ","diet_glute":" ","diet_local":" ","internet_4":" ","image":" ","operator_t":" "}},{"type":"Feature","id":47,"geometry":{"type":"Point","coordinates":[13.0337564,47.792411999999999]},"properties":{"FID":47,"F_id":"node/4303172470","addr_city":"Salzburg","addr_house":"9","addr_postc":"5020","addr_stree":"Hegigasse","building":" ","building_l":" ","internet_a":"wlan","internet_1":"no","name":"Muffin Hostel","phone":" ","roof_shape":" ","stars":" ","tourism":"hostel","website":" ","operator":" ","rooms":" ","wheelchair":" ","wheelcha_1":" ","addr_count":" ","beds":" ","breakfast":" ","check_date":" ","contact_em":" ","contact_fa":" ","contact_ph":" ","contact_we":" ","cuisine":" ","kitchen_ho":" ","opening_ho":" ","outdoor_se":" ","smoking":"isolated","toilets_wh":" ","wikidata":" ","note":" ","at_bev_add":" ","email":" ","fax":" ","government":" ","office":" ","brand":" ","roof_level":" ","survey_dat":" ","amenity":" ","brand_wiki":" ","brand_wi_1":" ","compressed":" ","fuel_diese":" ","fuel_octan":" ","fuel_oct_1":" ","shop":" ","building_1":" ","source":" ","addr_hou_1":" ","bett_and_b":" ","bettundbik":" ","air_condit":" ","capacity":" ","dog":" ","fee":" ","lit":" ","power_supp":" ","sanitary_d":" ","sanitary_1":" ","sanitary_2":" ","shower":" ","tents":" ","toilets":" ","water_poin":" ","level":" ","wikimedia_":" ","wikipedia":" ","check_da_1":" ","payment_cr":" ","organic":" ","internet_2":" ","bar":" ","payment_ca":" ","payment_de":" ","reservatio":" ","diet_veget":" ","indoor_sea":" ","name_en":" ","website_me":" ","internet_3":" ","branch":" ","cash_withd":" ","diet_halal":" ","diet_koshe":" ","toilets_ac":" ","payment_ma":" ","payment_vi":" ","contact_in":" ","ref":" ","atm":" ","descriptio":" ","drive_thro":" ","contact__1":" ","contact_mo":" ","int_name":" ","guest_hous":" ","check_da_2":" ","diet_vegan":" ","highchair":" ","takeaway":" ","official_n":" ","leisure":" ","operator_w":" ","operator_1":" ","alt_name":" ","clothes":" ","payment__1":" ","name_zh":" ","ele":" ","lgbtq_crui":" ","lgbtq_men":" ","shop_1":" ","indoor":" ","payment_co":" ","payment_no":" ","vending":" ","charging_s":" ","diet_glute":" ","diet_local":" ","internet_4":" ","image":" ","operator_t":" "}},{"type":"Feature","id":48,"geometry":{"type":"Point","coordinates":[13.0441164,47.8151498]},"properties":{"FID":48,"F_id":"node/4361253197","addr_city":"Salzburg","addr_house":"4","addr_postc":"5020","addr_stree":"Fanny-von-Lehnert-Straße","building":" ","building_l":" ","internet_a":"wlan","internet_1":"no","name":"A&O Hotel and Hostel Salzburg Hauptbahnhof","phone":"+43 662 234 2000","roof_shape":" ","stars":" ","tourism":"hostel","website":"https://www.aohostels.com/at/salzburg/","operator":"A&O Hotels and Hostels","rooms":" ","wheelchair":"yes","wheelcha_1":" ","addr_count":"AT","beds":" ","breakfast":" ","check_date":" ","contact_em":" ","contact_fa":" ","contact_ph":" ","contact_we":" ","cuisine":" ","kitchen_ho":" ","opening_ho":" ","outdoor_se":" ","smoking":" ","toilets_wh":"yes","wikidata":" ","note":" ","at_bev_add":" ","email":"booking@aohostels.com","fax":" ","government":" ","office":" ","brand":"A&O","roof_level":" ","survey_dat":" ","amenity":" ","brand_wiki":"Q15890910","brand_wi_1":" ","compressed":" ","fuel_diese":" ","fuel_octan":" ","fuel_oct_1":" ","shop":" ","building_1":" ","source":" ","addr_hou_1":" ","bett_and_b":" ","bettundbik":" ","air_condit":" ","capacity":" ","dog":" ","fee":" ","lit":" ","power_supp":" ","sanitary_d":" ","sanitary_1":" ","sanitary_2":" ","shower":" ","tents":" ","toilets":" ","water_poin":" ","level":" ","wikimedia_":" ","wikipedia":" ","check_da_1":" ","payment_cr":" ","organic":" ","internet_2":" ","bar":" ","payment_ca":" ","payment_de":" ","reservatio":" ","diet_veget":" ","indoor_sea":" ","name_en":" ","website_me":" ","internet_3":" ","branch":" ","cash_withd":" ","diet_halal":" ","diet_koshe":" ","toilets_ac":" ","payment_ma":" ","payment_vi":" ","contact_in":" ","ref":" ","atm":" ","descriptio":" ","drive_thro":" ","contact__1":" ","contact_mo":" ","int_name":" ","guest_hous":" ","check_da_2":" ","diet_vegan":" ","highchair":" ","takeaway":" ","official_n":" ","leisure":" ","operator_w":" ","operator_1":" ","alt_name":" ","clothes":" ","payment__1":" ","name_zh":" ","ele":" ","lgbtq_crui":" ","lgbtq_men":" ","shop_1":" ","indoor":" ","payment_co":" ","payment_no":" ","vending":" ","charging_s":" ","diet_glute":" ","diet_local":" ","internet_4":" ","image":" ","operator_t":" "}},{"type":"Feature","id":49,"geometry":{"type":"Point","coordinates":[13.0168763,47.760554800000001]},"properties":{"FID":49,"F_id":"node/4378528290","addr_city":" ","addr_house":"133","addr_postc":"5020","addr_stree":"Moosstraße","building":" ","building_l":" ","internet_a":"wlan","internet_1":" ","name":"Schachlwirt","phone":"+43-662-83 07 28","roof_shape":" ","stars":" ","tourism":" ","website":"https://www.schachlwirt.at","operator":" ","rooms":" ","wheelchair":" ","wheelcha_1":" ","addr_count":"AT","beds":" ","breakfast":" ","check_date":" ","contact_em":" ","contact_fa":" ","contact_ph":" ","contact_we":" ","cuisine":"austrian;hungarian;local","kitchen_ho":" ","opening_ho":"Mo-Su 11:00-23:55","outdoor_se":" ","smoking":" ","toilets_wh":" ","wikidata":" ","note":" ","at_bev_add":" ","email":" ","fax":" ","government":" ","office":" ","brand":" ","roof_level":" ","survey_dat":" ","amenity":"restaurant","brand_wiki":" ","brand_wi_1":" ","compressed":" ","fuel_diese":" ","fuel_octan":" ","fuel_oct_1":" ","shop":" ","building_1":" ","source":" ","addr_hou_1":" ","bett_and_b":" ","bettundbik":" ","air_condit":" ","capacity":" ","dog":" ","fee":" ","lit":" ","power_supp":" ","sanitary_d":" ","sanitary_1":" ","sanitary_2":" ","shower":" ","tents":" ","toilets":" ","water_poin":" ","level":" ","wikimedia_":" ","wikipedia":" ","check_da_1":" ","payment_cr":" ","organic":" ","internet_2":" ","bar":" ","payment_ca":" ","payment_de":" ","reservatio":" ","diet_veget":" ","indoor_sea":" ","name_en":" ","website_me":" ","internet_3":" ","branch":" ","cash_withd":" ","diet_halal":" ","diet_koshe":" ","toilets_ac":" ","payment_ma":" ","payment_vi":" ","contact_in":" ","ref":" ","atm":" ","descriptio":" ","drive_thro":" ","contact__1":" ","contact_mo":" ","int_name":" ","guest_hous":" ","check_da_2":" ","diet_vegan":" ","highchair":" ","takeaway":" ","official_n":" ","leisure":" ","operator_w":" ","operator_1":" ","alt_name":" ","clothes":" ","payment__1":" ","name_zh":"Schachlwirt Familie Horvath","ele":" ","lgbtq_crui":" ","lgbtq_men":" ","shop_1":" ","indoor":" ","payment_co":" ","payment_no":" ","vending":" ","charging_s":" ","diet_glute":" ","diet_local":" ","internet_4":" ","image":" ","operator_t":" "}},{"type":"Feature","id":50,"geometry":{"type":"Point","coordinates":[13.0467221,47.804267699999997]},"properties":{"FID":50,"F_id":"node/4442549192","addr_city":" ","addr_house":"39","addr_postc":" ","addr_stree":"Linzer Gasse","building":" ","building_l":" ","internet_a":"wlan","internet_1":"customers","name":"Coffeehouse","phone":" ","roof_shape":" ","stars":" ","tourism":" ","website":" ","operator":" ","rooms":" ","wheelchair":"yes","wheelcha_1":" ","addr_count":" ","beds":" ","breakfast":" ","check_date":" ","contact_em":" ","contact_fa":" ","contact_ph":" ","contact_we":" ","cuisine":" ","kitchen_ho":" ","opening_ho":"Mo-Sa 08:30-21:00","outdoor_se":" ","smoking":" ","toilets_wh":" ","wikidata":" ","note":" ","at_bev_add":" ","email":" ","fax":" ","government":" ","office":" ","brand":" ","roof_level":" ","survey_dat":" ","amenity":"cafe","brand_wiki":" ","brand_wi_1":" ","compressed":" ","fuel_diese":" ","fuel_octan":" ","fuel_oct_1":" ","shop":" ","building_1":" ","source":" ","addr_hou_1":" ","bett_and_b":" ","bettundbik":" ","air_condit":" ","capacity":" ","dog":" ","fee":" ","lit":" ","power_supp":" ","sanitary_d":" ","sanitary_1":" ","sanitary_2":" ","shower":" ","tents":" ","toilets":"yes","water_poin":" ","level":"0","wikimedia_":" ","wikipedia":" ","check_da_1":" ","payment_cr":" ","organic":" ","internet_2":" ","bar":" ","payment_ca":" ","payment_de":" ","reservatio":" ","diet_veget":"yes","indoor_sea":" ","name_en":" ","website_me":" ","internet_3":" ","branch":" ","cash_withd":" ","diet_halal":" ","diet_koshe":" ","toilets_ac":" ","payment_ma":" ","payment_vi":" ","contact_in":" ","ref":" ","atm":" ","descriptio":" ","drive_thro":" ","contact__1":" ","contact_mo":" ","int_name":" ","guest_hous":" ","check_da_2":" ","diet_vegan":"yes","highchair":" ","takeaway":" ","official_n":" ","leisure":" ","operator_w":" ","operator_1":" ","alt_name":" ","clothes":" ","payment__1":" ","name_zh":" ","ele":" ","lgbtq_crui":" ","lgbtq_men":" ","shop_1":" ","indoor":" ","payment_co":" ","payment_no":" ","vending":" ","charging_s":" ","diet_glute":" ","diet_local":" ","internet_4":" ","image":" ","operator_t":" "}},{"type":"Feature","id":51,"geometry":{"type":"Point","coordinates":[13.020443800000001,47.798637599999999]},"properties":{"FID":51,"F_id":"node/4469087872","addr_city":"Salzburg","addr_house":"4","addr_postc":"5020","addr_stree":"Wehrgasse","building":" ","building_l":" ","internet_a":"wlan","internet_1":" ","name":"Das Grüne Bio-Hotel zur Post - Garten Haus","phone":"+43 662 832339-0","roof_shape":" ","stars":"3","tourism":"hotel","website":"www.dasgrünehotel.at","operator":"Georg Maier","rooms":" ","wheelchair":"yes","wheelcha_1":" ","addr_count":" ","beds":" ","breakfast":" ","check_date":" ","contact_em":" ","contact_fa":" ","contact_ph":" ","contact_we":" ","cuisine":" ","kitchen_ho":" ","opening_ho":" ","outdoor_se":" ","smoking":"outside","toilets_wh":" ","wikidata":" ","note":" ","at_bev_add":" ","email":" ","fax":" ","government":" ","office":" ","brand":" ","roof_level":" ","survey_dat":" ","amenity":" ","brand_wiki":" ","brand_wi_1":" ","compressed":" ","fuel_diese":" ","fuel_octan":" ","fuel_oct_1":" ","shop":" ","building_1":" ","source":" ","addr_hou_1":" ","bett_and_b":" ","bettundbik":" ","air_condit":" ","capacity":" ","dog":" ","fee":" ","lit":" ","power_supp":" ","sanitary_d":" ","sanitary_1":" ","sanitary_2":" ","shower":" ","tents":" ","toilets":" ","water_poin":" ","level":"2","wikimedia_":" ","wikipedia":" ","check_da_1":" ","payment_cr":" ","organic":" ","internet_2":" ","bar":" ","payment_ca":" ","payment_de":" ","reservatio":" ","diet_veget":" ","indoor_sea":" ","name_en":" ","website_me":" ","internet_3":" ","branch":" ","cash_withd":" ","diet_halal":" ","diet_koshe":" ","toilets_ac":" ","payment_ma":" ","payment_vi":" ","contact_in":" ","ref":" ","atm":" ","descriptio":"Unser Garten Haus liegt hinter dem Bio-Hotel zur Post und ist sehr ruhig gelegen. Im Garten gibt es eine gemütliche Sitzecke mit Liegen.","drive_thro":" ","contact__1":" ","contact_mo":" ","int_name":" ","guest_hous":" ","check_da_2":" ","diet_vegan":" ","highchair":" ","takeaway":" ","official_n":" ","leisure":" ","operator_w":" ","operator_1":" ","alt_name":" ","clothes":" ","payment__1":" ","name_zh":" ","ele":"424","lgbtq_crui":" ","lgbtq_men":" ","shop_1":" ","indoor":" ","payment_co":" ","payment_no":" ","vending":" ","charging_s":" ","diet_glute":" ","diet_local":" ","internet_4":" ","image":" ","operator_t":" "}},{"type":"Feature","id":52,"geometry":{"type":"Point","coordinates":[13.041278399999999,47.807422000000003]},"properties":{"FID":52,"F_id":"node/4525140489","addr_city":" ","addr_house":"17","addr_postc":" ","addr_stree":"Auerspergstraße","building":" ","building_l":" ","internet_a":"wlan","internet_1":" ","name":"Restaurant Hayat","phone":"+43662870054","roof_shape":" ","stars":" ","tourism":" ","website":"http://restaurant-hayat.at","operator":" ","rooms":" ","wheelchair":" ","wheelcha_1":" ","addr_count":" ","beds":" ","breakfast":" ","check_date":" ","contact_em":" ","contact_fa":" ","contact_ph":" ","contact_we":" ","cuisine":"arab","kitchen_ho":" ","opening_ho":"Mo-Su 12:00-23:00","outdoor_se":" ","smoking":" ","toilets_wh":" ","wikidata":" ","note":" ","at_bev_add":" ","email":"office@restaurant-hayat.at","fax":" ","government":" ","office":" ","brand":" ","roof_level":" ","survey_dat":" ","amenity":"restaurant","brand_wiki":" ","brand_wi_1":" ","compressed":" ","fuel_diese":" ","fuel_octan":" ","fuel_oct_1":" ","shop":" ","building_1":" ","source":" ","addr_hou_1":" ","bett_and_b":" ","bettundbik":" ","air_condit":" ","capacity":" ","dog":" ","fee":" ","lit":" ","power_supp":" ","sanitary_d":" ","sanitary_1":" ","sanitary_2":" ","shower":" ","tents":" ","toilets":" ","water_poin":" ","level":" ","wikimedia_":" ","wikipedia":" ","check_da_1":" ","payment_cr":" ","organic":" ","internet_2":" ","bar":" ","payment_ca":" ","payment_de":" ","reservatio":" ","diet_veget":" ","indoor_sea":" ","name_en":" ","website_me":" ","internet_3":" ","branch":" ","cash_withd":" ","diet_halal":" ","diet_koshe":" ","toilets_ac":" ","payment_ma":" ","payment_vi":" ","contact_in":" ","ref":" ","atm":" ","descriptio":" ","drive_thro":" ","contact__1":" ","contact_mo":" ","int_name":" ","guest_hous":" ","check_da_2":" ","diet_vegan":" ","highchair":" ","takeaway":" ","official_n":" ","leisure":" ","operator_w":" ","operator_1":" ","alt_name":" ","clothes":" ","payment__1":" ","name_zh":" ","ele":" ","lgbtq_crui":" ","lgbtq_men":" ","shop_1":" ","indoor":" ","payment_co":" ","payment_no":" ","vending":" ","charging_s":" ","diet_glute":" ","diet_local":" ","internet_4":" ","image":" ","operator_t":" "}},{"type":"Feature","id":53,"geometry":{"type":"Point","coordinates":[13.0396158,47.823618500000002]},"properties":{"FID":53,"F_id":"node/4787833494","addr_city":"Salzburg","addr_house":"30","addr_postc":"5020","addr_stree":"Schillerstraße","building":" ","building_l":" ","internet_a":"wlan","internet_1":" ","name":"iDEAS:lab","phone":" ","roof_shape":" ","stars":" ","tourism":"museum","website":"https://ideaslab.sbg.ac.at","operator":"Fachbereich für Geoinformatik - Z_GIS, Universität Salzburg","rooms":" ","wheelchair":"yes","wheelcha_1":" ","addr_count":" ","beds":" ","breakfast":" ","check_date":" ","contact_em":" ","contact_fa":" ","contact_ph":" ","contact_we":" ","cuisine":" ","kitchen_ho":" ","opening_ho":" ","outdoor_se":" ","smoking":" ","toilets_wh":" ","wikidata":" ","note":" ","at_bev_add":" ","email":" ","fax":" ","government":" ","office":" ","brand":" ","roof_level":" ","survey_dat":" ","amenity":" ","brand_wiki":" ","brand_wi_1":" ","compressed":" ","fuel_diese":" ","fuel_octan":" ","fuel_oct_1":" ","shop":" ","building_1":" ","source":" ","addr_hou_1":" ","bett_and_b":" ","bettundbik":" ","air_condit":" ","capacity":" ","dog":" ","fee":" ","lit":" ","power_supp":" ","sanitary_d":" ","sanitary_1":" ","sanitary_2":" ","shower":" ","tents":" ","toilets":" ","water_poin":" ","level":" ","wikimedia_":" ","wikipedia":" ","check_da_1":" ","payment_cr":" ","organic":" ","internet_2":" ","bar":" ","payment_ca":" ","payment_de":" ","reservatio":" ","diet_veget":" ","indoor_sea":" ","name_en":" ","website_me":" ","internet_3":" ","branch":" ","cash_withd":" ","diet_halal":" ","diet_koshe":" ","toilets_ac":" ","payment_ma":" ","payment_vi":" ","contact_in":" ","ref":" ","atm":" ","descriptio":"Viewpoint to the world of geoinformation","drive_thro":" ","contact__1":" ","contact_mo":" ","int_name":" ","guest_hous":" ","check_da_2":" ","diet_vegan":" ","highchair":" ","takeaway":" ","official_n":" ","leisure":" ","operator_w":" ","operator_1":" ","alt_name":" ","clothes":" ","payment__1":" ","name_zh":" ","ele":" ","lgbtq_crui":" ","lgbtq_men":" ","shop_1":" ","indoor":" ","payment_co":" ","payment_no":" ","vending":" ","charging_s":" ","diet_glute":" ","diet_local":" ","internet_4":" ","image":" ","operator_t":" "}},{"type":"Feature","id":54,"geometry":{"type":"Point","coordinates":[13.011039800000001,47.807271100000001]},"properties":{"FID":54,"F_id":"node/4902534821","addr_city":" ","addr_house":"39 B","addr_postc":"5020","addr_stree":"Siezenheimer Straße","building":" ","building_l":" ","internet_a":"wlan","internet_1":" ","name":"Stratmann Wine & Dine","phone":" ","roof_shape":" ","stars":" ","tourism":" ","website":" ","operator":" ","rooms":" ","wheelchair":" ","wheelcha_1":" ","addr_count":" ","beds":" ","breakfast":" ","check_date":" ","contact_em":" ","contact_fa":" ","contact_ph":"+43 662 276102","contact_we":"http://www.stratmann.co.at","cuisine":"fish;grill;bavarian;coffee_shop;local;pasta;fine_dining;buschenschank","kitchen_ho":" ","opening_ho":"Mo-We 18:00-24:00; Th-Sa 12:00-24:00","outdoor_se":" ","smoking":" ","toilets_wh":" ","wikidata":" ","note":" ","at_bev_add":" ","email":" ","fax":" ","government":" ","office":" ","brand":" ","roof_level":" ","survey_dat":" ","amenity":"restaurant","brand_wiki":" ","brand_wi_1":" ","compressed":" ","fuel_diese":" ","fuel_octan":" ","fuel_oct_1":" ","shop":" ","building_1":" ","source":" ","addr_hou_1":" ","bett_and_b":" ","bettundbik":" ","air_condit":" ","capacity":" ","dog":" ","fee":" ","lit":" ","power_supp":" ","sanitary_d":" ","sanitary_1":" ","sanitary_2":" ","shower":" ","tents":" ","toilets":" ","water_poin":" ","level":" ","wikimedia_":" ","wikipedia":" ","check_da_1":" ","payment_cr":" ","organic":" ","internet_2":" ","bar":" ","payment_ca":" ","payment_de":" ","reservatio":" ","diet_veget":" ","indoor_sea":" ","name_en":" ","website_me":" ","internet_3":" ","branch":" ","cash_withd":" ","diet_halal":" ","diet_koshe":" ","toilets_ac":" ","payment_ma":" ","payment_vi":" ","contact_in":" ","ref":" ","atm":" ","descriptio":" ","drive_thro":" ","contact__1":" ","contact_mo":" ","int_name":" ","guest_hous":" ","check_da_2":" ","diet_vegan":" ","highchair":" ","takeaway":" ","official_n":" ","leisure":" ","operator_w":" ","operator_1":" ","alt_name":" ","clothes":" ","payment__1":" ","name_zh":" ","ele":" ","lgbtq_crui":" ","lgbtq_men":" ","shop_1":" ","indoor":" ","payment_co":" ","payment_no":" ","vending":" ","charging_s":" ","diet_glute":" ","diet_local":" ","internet_4":" ","image":" ","operator_t":" "}},{"type":"Feature","id":55,"geometry":{"type":"Point","coordinates":[13.0291137,47.802342299999999]},"properties":{"FID":55,"F_id":"node/5330175710","addr_city":"Salzburg","addr_house":"15","addr_postc":"5020","addr_stree":"Aiglhofstraße","building":" ","building_l":" ","internet_a":"wlan","internet_1":" ","name":"Pension Wallner","phone":"+43 662 845023","roof_shape":" ","stars":"2","tourism":"guest_house","website":"http://www.pensionwallner.at","operator":" ","rooms":" ","wheelchair":" ","wheelcha_1":" ","addr_count":" ","beds":" ","breakfast":"yes","check_date":" ","contact_em":" ","contact_fa":" ","contact_ph":" ","contact_we":" ","cuisine":" ","kitchen_ho":" ","opening_ho":" ","outdoor_se":" ","smoking":" ","toilets_wh":" ","wikidata":" ","note":" ","at_bev_add":" ","email":"office@pensionwallner.at","fax":"+43 662 8450233","government":" ","office":" ","brand":" ","roof_level":" ","survey_dat":" ","amenity":" ","brand_wiki":" ","brand_wi_1":" ","compressed":" ","fuel_diese":" ","fuel_octan":" ","fuel_oct_1":" ","shop":" ","building_1":" ","source":" ","addr_hou_1":" ","bett_and_b":" ","bettundbik":" ","air_condit":" ","capacity":" ","dog":" ","fee":" ","lit":" ","power_supp":" ","sanitary_d":" ","sanitary_1":" ","sanitary_2":" ","shower":" ","tents":" ","toilets":" ","water_poin":" ","level":" ","wikimedia_":" ","wikipedia":" ","check_da_1":" ","payment_cr":"no","organic":" ","internet_2":" ","bar":" ","payment_ca":" ","payment_de":"no","reservatio":" ","diet_veget":" ","indoor_sea":" ","name_en":" ","website_me":" ","internet_3":" ","branch":" ","cash_withd":" ","diet_halal":" ","diet_koshe":" ","toilets_ac":" ","payment_ma":" ","payment_vi":" ","contact_in":" ","ref":" ","atm":" ","descriptio":" ","drive_thro":" ","contact__1":" ","contact_mo":" ","int_name":" ","guest_hous":" ","check_da_2":" ","diet_vegan":" ","highchair":" ","takeaway":" ","official_n":" ","leisure":" ","operator_w":" ","operator_1":" ","alt_name":" ","clothes":" ","payment__1":" ","name_zh":" ","ele":" ","lgbtq_crui":" ","lgbtq_men":" ","shop_1":" ","indoor":" ","payment_co":" ","payment_no":" ","vending":" ","charging_s":" ","diet_glute":" ","diet_local":" ","internet_4":" ","image":" ","operator_t":" "}},{"type":"Feature","id":56,"geometry":{"type":"Point","coordinates":[13.047704299999999,47.808703100000002]},"properties":{"FID":56,"F_id":"node/5343986525","addr_city":"Salzburg","addr_house":"11","addr_postc":"5020","addr_stree":"Paracelsusstraße","building":" ","building_l":" ","internet_a":"wlan","internet_1":"customers","name":"Dark Eagle","phone":"+43 662 230214","roof_shape":" ","stars":" ","tourism":" ","website":"https://www.dark-eagle.at/","operator":" ","rooms":" ","wheelchair":"no","wheelcha_1":" ","addr_count":"AT","beds":" ","breakfast":" ","check_date":"2024-10-30","contact_em":" ","contact_fa":" ","contact_ph":" ","contact_we":" ","cuisine":" ","kitchen_ho":" ","opening_ho":"Mo-Tu,Su off; We-Th 20:00-24:00; Fr-Sa 20:30-02:00","outdoor_se":" ","smoking":" ","toilets_wh":" ","wikidata":" ","note":" ","at_bev_add":"2020-04-01","email":"customer@dark-eagle.at","fax":" ","government":" ","office":" ","brand":" ","roof_level":" ","survey_dat":" ","amenity":"bar","brand_wiki":" ","brand_wi_1":" ","compressed":" ","fuel_diese":" ","fuel_octan":" ","fuel_oct_1":" ","shop":" ","building_1":" ","source":" ","addr_hou_1":" ","bett_and_b":" ","bettundbik":" ","air_condit":" ","capacity":" ","dog":" ","fee":" ","lit":" ","power_supp":" ","sanitary_d":" ","sanitary_1":" ","sanitary_2":" ","shower":" ","tents":" ","toilets":" ","water_poin":" ","level":" ","wikimedia_":" ","wikipedia":" ","check_da_1":" ","payment_cr":"yes","organic":" ","internet_2":" ","bar":" ","payment_ca":"yes","payment_de":"yes","reservatio":" ","diet_veget":" ","indoor_sea":" ","name_en":" ","website_me":" ","internet_3":" ","branch":" ","cash_withd":" ","diet_halal":" ","diet_koshe":" ","toilets_ac":" ","payment_ma":" ","payment_vi":" ","contact_in":" ","ref":" ","atm":" ","descriptio":" ","drive_thro":" ","contact__1":"https://www.facebook.com/1734769346755063","contact_mo":" ","int_name":" ","guest_hous":" ","check_da_2":" ","diet_vegan":" ","highchair":" ","takeaway":" ","official_n":" ","leisure":" ","operator_w":" ","operator_1":" ","alt_name":" ","clothes":" ","payment__1":" ","name_zh":" ","ele":" ","lgbtq_crui":"yes","lgbtq_men":"only","shop_1":" ","indoor":" ","payment_co":" ","payment_no":" ","vending":" ","charging_s":" ","diet_glute":" ","diet_local":" ","internet_4":" ","image":" ","operator_t":" "}},{"type":"Feature","id":57,"geometry":{"type":"Point","coordinates":[13.021149899999999,47.797606600000002]},"properties":{"FID":57,"F_id":"node/5351396279","addr_city":"Salzburg","addr_house":"1","addr_postc":"5020","addr_stree":"Sebastian-Stöllner-Straße","building":" ","building_l":" ","internet_a":"wlan","internet_1":" ","name":"Gamers Finest","phone":"+43 676 6237686","roof_shape":" ","stars":" ","tourism":" ","website":"https://www.gamers-finest.at","operator":" ","rooms":" ","wheelchair":"no","wheelcha_1":" ","addr_count":" ","beds":" ","breakfast":" ","check_date":" ","contact_em":" ","contact_fa":" ","contact_ph":" ","contact_we":" ","cuisine":" ","kitchen_ho":" ","opening_ho":"Tu-Th 15:00-21:00; Fr 14:00-21:00; Sa 13:00-21:00","outdoor_se":" ","smoking":" ","toilets_wh":" ","wikidata":" ","note":" ","at_bev_add":" ","email":"office@gamersfinest.at","fax":" ","government":" ","office":" ","brand":"Magic - The Gathering, Games Workshop","roof_level":" ","survey_dat":" ","amenity":" ","brand_wiki":" ","brand_wi_1":" ","compressed":" ","fuel_diese":" ","fuel_octan":" ","fuel_oct_1":" ","shop":"games","building_1":" ","source":" ","addr_hou_1":" ","bett_and_b":" ","bettundbik":" ","air_condit":" ","capacity":" ","dog":" ","fee":" ","lit":" ","power_supp":" ","sanitary_d":" ","sanitary_1":" ","sanitary_2":" ","shower":" ","tents":" ","toilets":" ","water_poin":" ","level":" ","wikimedia_":" ","wikipedia":" ","check_da_1":" ","payment_cr":" ","organic":" ","internet_2":" ","bar":" ","payment_ca":" ","payment_de":" ","reservatio":" ","diet_veget":" ","indoor_sea":" ","name_en":" ","website_me":" ","internet_3":" ","branch":" ","cash_withd":" ","diet_halal":" ","diet_koshe":" ","toilets_ac":" ","payment_ma":" ","payment_vi":" ","contact_in":" ","ref":" ","atm":" ","descriptio":" ","drive_thro":" ","contact__1":" ","contact_mo":" ","int_name":" ","guest_hous":" ","check_da_2":" ","diet_vegan":" ","highchair":" ","takeaway":" ","official_n":" ","leisure":" ","operator_w":" ","operator_1":" ","alt_name":" ","clothes":" ","payment__1":" ","name_zh":" ","ele":" ","lgbtq_crui":" ","lgbtq_men":" ","shop_1":"cafe","indoor":" ","payment_co":" ","payment_no":" ","vending":" ","charging_s":" ","diet_glute":" ","diet_local":" ","internet_4":" ","image":" ","operator_t":" "}},{"type":"Feature","id":58,"geometry":{"type":"Point","coordinates":[13.048230500000001,47.804174000000003]},"properties":{"FID":58,"F_id":"node/6314328690","addr_city":" ","addr_house":" ","addr_postc":" ","addr_stree":" ","building":" ","building_l":" ","internet_a":"wlan","internet_1":"no","name":"BistroBox","phone":" ","roof_shape":" ","stars":" ","tourism":" ","website":"https://www.bistrobox.com/","operator":"BistroBox GmbH","rooms":" ","wheelchair":"yes","wheelcha_1":" ","addr_count":" ","beds":" ","breakfast":" ","check_date":"2023-06-27","contact_em":" ","contact_fa":" ","contact_ph":" ","contact_we":" ","cuisine":"pizza","kitchen_ho":" ","opening_ho":"24/7","outdoor_se":" ","smoking":" ","toilets_wh":" ","wikidata":" ","note":" ","at_bev_add":" ","email":"office@bistrobox.com","fax":" ","government":" ","office":" ","brand":" ","roof_level":" ","survey_dat":" ","amenity":"vending_machine","brand_wiki":" ","brand_wi_1":" ","compressed":" ","fuel_diese":" ","fuel_octan":" ","fuel_oct_1":" ","shop":" ","building_1":" ","source":" ","addr_hou_1":" ","bett_and_b":" ","bettundbik":" ","air_condit":" ","capacity":" ","dog":" ","fee":" ","lit":" ","power_supp":" ","sanitary_d":" ","sanitary_1":" ","sanitary_2":" ","shower":" ","tents":" ","toilets":" ","water_poin":" ","level":" ","wikimedia_":" ","wikipedia":" ","check_da_1":" ","payment_cr":" ","organic":" ","internet_2":" ","bar":" ","payment_ca":" ","payment_de":" ","reservatio":" ","diet_veget":" ","indoor_sea":" ","name_en":" ","website_me":" ","internet_3":" ","branch":" ","cash_withd":" ","diet_halal":" ","diet_koshe":" ","toilets_ac":" ","payment_ma":" ","payment_vi":" ","contact_in":" ","ref":" ","atm":" ","descriptio":" ","drive_thro":" ","contact__1":" ","contact_mo":" ","int_name":" ","guest_hous":" ","check_da_2":" ","diet_vegan":" ","highchair":" ","takeaway":" ","official_n":" ","leisure":" ","operator_w":" ","operator_1":" ","alt_name":" ","clothes":" ","payment__1":" ","name_zh":" ","ele":" ","lgbtq_crui":" ","lgbtq_men":" ","shop_1":" ","indoor":"yes","payment_co":"yes","payment_no":"yes","vending":"food;drinks;sweets;coffee;pizza","charging_s":" ","diet_glute":" ","diet_local":" ","internet_4":" ","image":" ","operator_t":" "}},{"type":"Feature","id":59,"geometry":{"type":"Point","coordinates":[13.044206900000001,47.811851099999998]},"properties":{"FID":59,"F_id":"node/6440496228","addr_city":"Salzburg","addr_house":"30","addr_postc":"5020","addr_stree":"Rainerstraße","building":" ","building_l":" ","internet_a":"wlan","internet_1":" ","name":"Mr Wen","phone":" ","roof_shape":" ","stars":" ","tourism":" ","website":" ","operator":" ","rooms":" ","wheelchair":" ","wheelcha_1":" ","addr_count":"AT","beds":" ","breakfast":" ","check_date":" ","contact_em":" ","contact_fa":" ","contact_ph":"+43 662 873189","contact_we":" ","cuisine":"asian","kitchen_ho":" ","opening_ho":"Mar Su[-1]-Oct Su[-1] -1 day: 11:00-22:30; Oct Su[-1]-Mar Su[-1] -1 day: 11:00-22:00","outdoor_se":"yes","smoking":" ","toilets_wh":" ","wikidata":" ","note":" ","at_bev_add":"2018-10-01","email":" ","fax":" ","government":" ","office":" ","brand":" ","roof_level":" ","survey_dat":" ","amenity":"restaurant","brand_wiki":" ","brand_wi_1":" ","compressed":" ","fuel_diese":" ","fuel_octan":" ","fuel_oct_1":" ","shop":" ","building_1":" ","source":" ","addr_hou_1":" ","bett_and_b":" ","bettundbik":" ","air_condit":" ","capacity":" ","dog":" ","fee":" ","lit":" ","power_supp":" ","sanitary_d":" ","sanitary_1":" ","sanitary_2":" ","shower":" ","tents":" ","toilets":" ","water_poin":" ","level":" ","wikimedia_":" ","wikipedia":" ","check_da_1":" ","payment_cr":" ","organic":" ","internet_2":" ","bar":" ","payment_ca":" ","payment_de":" ","reservatio":" ","diet_veget":" ","indoor_sea":"yes","name_en":" ","website_me":" ","internet_3":" ","branch":" ","cash_withd":" ","diet_halal":" ","diet_koshe":" ","toilets_ac":" ","payment_ma":" ","payment_vi":" ","contact_in":" ","ref":" ","atm":" ","descriptio":" ","drive_thro":" ","contact__1":" ","contact_mo":" ","int_name":" ","guest_hous":" ","check_da_2":" ","diet_vegan":" ","highchair":" ","takeaway":" ","official_n":" ","leisure":" ","operator_w":" ","operator_1":" ","alt_name":" ","clothes":" ","payment__1":" ","name_zh":" ","ele":" ","lgbtq_crui":" ","lgbtq_men":" ","shop_1":" ","indoor":" ","payment_co":" ","payment_no":" ","vending":" ","charging_s":" ","diet_glute":" ","diet_local":" ","internet_4":" ","image":" ","operator_t":" "}},{"type":"Feature","id":60,"geometry":{"type":"Point","coordinates":[13.0351404,47.808992400000001]},"properties":{"FID":60,"F_id":"node/6775593096","addr_city":"Salzburg","addr_house":"1","addr_postc":"5020","addr_stree":"Strubergasse","building":" ","building_l":" ","internet_a":"wlan","internet_1":"no","name":"Riverside Hotel Salzburg","phone":"+43 677 624 777 91","roof_shape":" ","stars":" ","tourism":"hostel","website":"https://mynext.at/riverside-hotel-salzburg/","operator":"myNext","rooms":" ","wheelchair":"no","wheelcha_1":" ","addr_count":" ","beds":" ","breakfast":" ","check_date":" ","contact_em":" ","contact_fa":" ","contact_ph":" ","contact_we":" ","cuisine":" ","kitchen_ho":" ","opening_ho":"Jul-Sep","outdoor_se":" ","smoking":"no","toilets_wh":" ","wikidata":" ","note":" ","at_bev_add":" ","email":"salzburg@mynext.at","fax":" ","government":" ","office":" ","brand":" ","roof_level":" ","survey_dat":" ","amenity":" ","brand_wiki":" ","brand_wi_1":" ","compressed":" ","fuel_diese":" ","fuel_octan":" ","fuel_oct_1":" ","shop":" ","building_1":" ","source":" ","addr_hou_1":" ","bett_and_b":" ","bettundbik":" ","air_condit":" ","capacity":" ","dog":" ","fee":" ","lit":" ","power_supp":" ","sanitary_d":" ","sanitary_1":" ","sanitary_2":" ","shower":" ","tents":" ","toilets":" ","water_poin":" ","level":" ","wikimedia_":" ","wikipedia":" ","check_da_1":" ","payment_cr":" ","organic":" ","internet_2":" ","bar":" ","payment_ca":" ","payment_de":" ","reservatio":" ","diet_veget":" ","indoor_sea":" ","name_en":" ","website_me":" ","internet_3":"customers","branch":" ","cash_withd":" ","diet_halal":" ","diet_koshe":" ","toilets_ac":" ","payment_ma":" ","payment_vi":" ","contact_in":" ","ref":" ","atm":" ","descriptio":" ","drive_thro":" ","contact__1":" ","contact_mo":" ","int_name":" ","guest_hous":"hotel","check_da_2":" ","diet_vegan":" ","highchair":" ","takeaway":" ","official_n":"myNext - Summer Hostel Salzburg","leisure":" ","operator_w":" ","operator_1":" ","alt_name":" ","clothes":" ","payment__1":" ","name_zh":" ","ele":" ","lgbtq_crui":" ","lgbtq_men":" ","shop_1":" ","indoor":" ","payment_co":" ","payment_no":" ","vending":" ","charging_s":" ","diet_glute":" ","diet_local":" ","internet_4":" ","image":" ","operator_t":" "}},{"type":"Feature","id":61,"geometry":{"type":"Point","coordinates":[13.018165,47.800980199999998]},"properties":{"FID":61,"F_id":"node/7140895234","addr_city":"Salzburg","addr_house":" ","addr_postc":"5020","addr_stree":" ","building":" ","building_l":" ","internet_a":"wlan","internet_1":"customers","name":"Max 70","phone":"+43 662 827 648","roof_shape":" ","stars":"3","tourism":"hotel","website":"https://www.max70.at","operator":" ","rooms":" ","wheelchair":" ","wheelcha_1":" ","addr_count":"AT","beds":" ","breakfast":" ","check_date":" ","contact_em":" ","contact_fa":" ","contact_ph":" ","contact_we":" ","cuisine":" ","kitchen_ho":" ","opening_ho":" ","outdoor_se":" ","smoking":" ","toilets_wh":" ","wikidata":" ","note":" ","at_bev_add":" ","email":" ","fax":" ","government":" ","office":" ","brand":" ","roof_level":" ","survey_dat":" ","amenity":" ","brand_wiki":" ","brand_wi_1":" ","compressed":" ","fuel_diese":" ","fuel_octan":" ","fuel_oct_1":" ","shop":" ","building_1":" ","source":" ","addr_hou_1":" ","bett_and_b":" ","bettundbik":" ","air_condit":" ","capacity":" ","dog":" ","fee":" ","lit":" ","power_supp":" ","sanitary_d":" ","sanitary_1":" ","sanitary_2":" ","shower":" ","tents":" ","toilets":" ","water_poin":" ","level":" ","wikimedia_":" ","wikipedia":" ","check_da_1":" ","payment_cr":" ","organic":" ","internet_2":" ","bar":" ","payment_ca":" ","payment_de":" ","reservatio":" ","diet_veget":" ","indoor_sea":" ","name_en":" ","website_me":" ","internet_3":" ","branch":" ","cash_withd":" ","diet_halal":" ","diet_koshe":" ","toilets_ac":" ","payment_ma":" ","payment_vi":" ","contact_in":" ","ref":" ","atm":" ","descriptio":" ","drive_thro":" ","contact__1":" ","contact_mo":" ","int_name":" ","guest_hous":" ","check_da_2":" ","diet_vegan":" ","highchair":" ","takeaway":" ","official_n":" ","leisure":" ","operator_w":" ","operator_1":" ","alt_name":" ","clothes":" ","payment__1":" ","name_zh":" ","ele":" ","lgbtq_crui":" ","lgbtq_men":" ","shop_1":" ","indoor":" ","payment_co":" ","payment_no":" ","vending":" ","charging_s":"yes","diet_glute":" ","diet_local":" ","internet_4":" ","image":" ","operator_t":" "}},{"type":"Feature","id":62,"geometry":{"type":"Point","coordinates":[13.0560546,47.8087394]},"properties":{"FID":62,"F_id":"node/7922005685","addr_city":" ","addr_house":"28-30","addr_postc":"5020","addr_stree":"Sterneckstraße","building":" ","building_l":" ","internet_a":"wlan","internet_1":" ","name":"MOONCITY","phone":"+43 662 46817440","roof_shape":" ","stars":" ","tourism":"museum","website":"https://www.mooncity-salzburg.at/","operator":" ","rooms":" ","wheelchair":" ","wheelcha_1":" ","addr_count":" ","beds":" ","breakfast":" ","check_date":" ","contact_em":" ","contact_fa":" ","contact_ph":" ","contact_we":" ","cuisine":" ","kitchen_ho":" ","opening_ho":"Tu-Fr 10:00-18:00; Sa 10:00-17:00","outdoor_se":" ","smoking":" ","toilets_wh":" ","wikidata":" ","note":" ","at_bev_add":" ","email":"info@mooncity-salzburg.at","fax":" ","government":" ","office":" ","brand":" ","roof_level":" ","survey_dat":" ","amenity":" ","brand_wiki":" ","brand_wi_1":" ","compressed":" ","fuel_diese":" ","fuel_octan":" ","fuel_oct_1":" ","shop":" ","building_1":" ","source":" ","addr_hou_1":" ","bett_and_b":" ","bettundbik":" ","air_condit":" ","capacity":" ","dog":" ","fee":" ","lit":" ","power_supp":" ","sanitary_d":" ","sanitary_1":" ","sanitary_2":" ","shower":" ","tents":" ","toilets":" ","water_poin":" ","level":" ","wikimedia_":" ","wikipedia":" ","check_da_1":" ","payment_cr":" ","organic":" ","internet_2":" ","bar":" ","payment_ca":" ","payment_de":" ","reservatio":" ","diet_veget":" ","indoor_sea":" ","name_en":" ","website_me":" ","internet_3":" ","branch":" ","cash_withd":" ","diet_halal":" ","diet_koshe":" ","toilets_ac":" ","payment_ma":" ","payment_vi":" ","contact_in":" ","ref":" ","atm":" ","descriptio":" ","drive_thro":" ","contact__1":" ","contact_mo":" ","int_name":" ","guest_hous":" ","check_da_2":" ","diet_vegan":" ","highchair":" ","takeaway":" ","official_n":" ","leisure":" ","operator_w":" ","operator_1":" ","alt_name":" ","clothes":" ","payment__1":" ","name_zh":" ","ele":" ","lgbtq_crui":" ","lgbtq_men":" ","shop_1":" ","indoor":" ","payment_co":" ","payment_no":" ","vending":" ","charging_s":" ","diet_glute":" ","diet_local":" ","internet_4":" ","image":" ","operator_t":" "}},{"type":"Feature","id":63,"geometry":{"type":"Point","coordinates":[13.038963799999999,47.809222400000003]},"properties":{"FID":63,"F_id":"node/8117170224","addr_city":" ","addr_house":"50","addr_postc":" ","addr_stree":"Schwarzstraße","building":" ","building_l":" ","internet_a":"wlan","internet_1":"customers","name":"The Keep Garden Kitchen","phone":"+43 662 231002","roof_shape":" ","stars":" ","tourism":" ","website":"https://www.thekeepresidence.com/restaurant/","operator":"iGreen Betriebs GmbH","rooms":" ","wheelchair":"limited","wheelcha_1":" ","addr_count":" ","beds":" ","breakfast":" ","check_date":"2024-07-26","contact_em":" ","contact_fa":" ","contact_ph":" ","contact_we":" ","cuisine":"regional","kitchen_ho":" ","opening_ho":"Mo,Su 08:00-11:00; Tu-Sa 08:00-11:00,12:30-20:30","outdoor_se":"yes","smoking":" ","toilets_wh":"no","wikidata":" ","note":" ","at_bev_add":" ","email":"book@thekeepresidence.com","fax":" ","government":" ","office":" ","brand":" ","roof_level":" ","survey_dat":" ","amenity":"restaurant","brand_wiki":" ","brand_wi_1":" ","compressed":" ","fuel_diese":" ","fuel_octan":" ","fuel_oct_1":" ","shop":" ","building_1":" ","source":" ","addr_hou_1":" ","bett_and_b":" ","bettundbik":" ","air_condit":"no","capacity":" ","dog":" ","fee":" ","lit":" ","power_supp":" ","sanitary_d":" ","sanitary_1":" ","sanitary_2":" ","shower":" ","tents":" ","toilets":"yes","water_poin":" ","level":"0","wikimedia_":" ","wikipedia":" ","check_da_1":" ","payment_cr":" ","organic":" ","internet_2":" ","bar":" ","payment_ca":"yes","payment_de":" ","reservatio":" ","diet_veget":"only","indoor_sea":" ","name_en":" ","website_me":" ","internet_3":" ","branch":" ","cash_withd":" ","diet_halal":" ","diet_koshe":" ","toilets_ac":" ","payment_ma":"yes","payment_vi":"yes","contact_in":" ","ref":" ","atm":" ","descriptio":" ","drive_thro":" ","contact__1":" ","contact_mo":" ","int_name":" ","guest_hous":" ","check_da_2":" ","diet_vegan":"only","highchair":" ","takeaway":" ","official_n":" ","leisure":" ","operator_w":" ","operator_1":" ","alt_name":" ","clothes":" ","payment__1":" ","name_zh":" ","ele":" ","lgbtq_crui":" ","lgbtq_men":" ","shop_1":" ","indoor":" ","payment_co":" ","payment_no":" ","vending":" ","charging_s":" ","diet_glute":"yes","diet_local":"yes","internet_4":" ","image":" ","operator_t":" "}},{"type":"Feature","id":64,"geometry":{"type":"Point","coordinates":[13.038952399999999,47.809105099999996]},"properties":{"FID":64,"F_id":"node/8117170225","addr_city":" ","addr_house":"50","addr_postc":" ","addr_stree":"Schwarzstraße","building":" ","building_l":" ","internet_a":"wlan","internet_1":"customers","name":"The Keep Eco Residence","phone":"+43 662 231002","roof_shape":" ","stars":" ","tourism":"hotel","website":"https://www.thekeepresidence.com/","operator":"iGreen Betriebs GmbH","rooms":" ","wheelchair":"no","wheelcha_1":" ","addr_count":" ","beds":" ","breakfast":" ","check_date":"2024-07-26","contact_em":" ","contact_fa":" ","contact_ph":" ","contact_we":" ","cuisine":" ","kitchen_ho":" ","opening_ho":" ","outdoor_se":" ","smoking":"outside","toilets_wh":" ","wikidata":" ","note":" ","at_bev_add":" ","email":"book@thekeepresidence.com","fax":" ","government":" ","office":" ","brand":" ","roof_level":" ","survey_dat":" ","amenity":" ","brand_wiki":" ","brand_wi_1":" ","compressed":" ","fuel_diese":" ","fuel_octan":" ","fuel_oct_1":" ","shop":" ","building_1":" ","source":" ","addr_hou_1":" ","bett_and_b":" ","bettundbik":" ","air_condit":"no","capacity":" ","dog":" ","fee":" ","lit":" ","power_supp":" ","sanitary_d":" ","sanitary_1":" ","sanitary_2":" ","shower":" ","tents":" ","toilets":" ","water_poin":" ","level":" ","wikimedia_":" ","wikipedia":" ","check_da_1":" ","payment_cr":" ","organic":" ","internet_2":" ","bar":" ","payment_ca":" ","payment_de":" ","reservatio":"required","diet_veget":" ","indoor_sea":" ","name_en":" ","website_me":" ","internet_3":" ","branch":" ","cash_withd":" ","diet_halal":" ","diet_koshe":" ","toilets_ac":" ","payment_ma":" ","payment_vi":" ","contact_in":" ","ref":" ","atm":" ","descriptio":" ","drive_thro":" ","contact__1":" ","contact_mo":" ","int_name":" ","guest_hous":" ","check_da_2":" ","diet_vegan":" ","highchair":" ","takeaway":" ","official_n":" ","leisure":" ","operator_w":" ","operator_1":" ","alt_name":" ","clothes":" ","payment__1":" ","name_zh":" ","ele":" ","lgbtq_crui":" ","lgbtq_men":" ","shop_1":" ","indoor":" ","payment_co":" ","payment_no":" ","vending":" ","charging_s":" ","diet_glute":" ","diet_local":" ","internet_4":"The Keep Eco Residence","image":" ","operator_t":" "}},{"type":"Feature","id":65,"geometry":{"type":"Point","coordinates":[13.033201800000001,47.811069799999999]},"properties":{"FID":65,"F_id":"node/8865535252","addr_city":"Salzburg","addr_house":"24","addr_postc":"5020","addr_stree":"Gaswerkgasse","building":" ","building_l":" ","internet_a":"wlan","internet_1":" ","name":"@HOME Studentenwohnheim Salzburg","phone":" ","roof_shape":" ","stars":" ","tourism":" ","website":"https://www.studentenwohnheim-salzburg.at/","operator":" ","rooms":" ","wheelchair":" ","wheelcha_1":" ","addr_count":" ","beds":" ","breakfast":" ","check_date":" ","contact_em":" ","contact_fa":" ","contact_ph":" ","contact_we":" ","cuisine":" ","kitchen_ho":" ","opening_ho":" ","outdoor_se":" ","smoking":" ","toilets_wh":" ","wikidata":" ","note":" ","at_bev_add":" ","email":"info@studentenwohnheim-salzburg.at","fax":" ","government":" ","office":" ","brand":" ","roof_level":" ","survey_dat":" ","amenity":"student_accommodation","brand_wiki":" ","brand_wi_1":" ","compressed":" ","fuel_diese":" ","fuel_octan":" ","fuel_oct_1":" ","shop":" ","building_1":" ","source":" ","addr_hou_1":" ","bett_and_b":" ","bettundbik":" ","air_condit":" ","capacity":" ","dog":" ","fee":" ","lit":" ","power_supp":" ","sanitary_d":" ","sanitary_1":" ","sanitary_2":" ","shower":" ","tents":" ","toilets":" ","water_poin":" ","level":" ","wikimedia_":" ","wikipedia":" ","check_da_1":" ","payment_cr":" ","organic":" ","internet_2":" ","bar":" ","payment_ca":" ","payment_de":" ","reservatio":" ","diet_veget":" ","indoor_sea":" ","name_en":" ","website_me":" ","internet_3":" ","branch":" ","cash_withd":" ","diet_halal":" ","diet_koshe":" ","toilets_ac":" ","payment_ma":" ","payment_vi":" ","contact_in":" ","ref":" ","atm":" ","descriptio":" ","drive_thro":" ","contact__1":" ","contact_mo":" ","int_name":" ","guest_hous":" ","check_da_2":" ","diet_vegan":" ","highchair":" ","takeaway":" ","official_n":" ","leisure":" ","operator_w":" ","operator_1":" ","alt_name":" ","clothes":" ","payment__1":" ","name_zh":" ","ele":" ","lgbtq_crui":" ","lgbtq_men":" ","shop_1":" ","indoor":" ","payment_co":" ","payment_no":" ","vending":" ","charging_s":" ","diet_glute":" ","diet_local":" ","internet_4":" ","image":"https://www.studentenwohnheim-salzburg.at/wp-content/uploads/2021/04/Zimmer-Rendered-02.jpg","operator_t":" "}},{"type":"Feature","id":66,"geometry":{"type":"Point","coordinates":[13.066383200000001,47.797528800000002]},"properties":{"FID":66,"F_id":"node/8972345866","addr_city":"Salzburg","addr_house":"4","addr_postc":"5020","addr_stree":"Höfelgasse","building":" ","building_l":" ","internet_a":"wlan","internet_1":"no","name":"Hotel Rosenvilla","phone":" ","roof_shape":" ","stars":" ","tourism":"hotel","website":" ","operator":" ","rooms":"15","wheelchair":" ","wheelcha_1":" ","addr_count":" ","beds":" ","breakfast":" ","check_date":"2024-03-12","contact_em":" ","contact_fa":" ","contact_ph":" ","contact_we":" ","cuisine":" ","kitchen_ho":" ","opening_ho":" ","outdoor_se":" ","smoking":" ","toilets_wh":" ","wikidata":" ","note":" ","at_bev_add":" ","email":"hotel@rosenvilla.com","fax":" ","government":" ","office":" ","brand":"PrivateCityHotels","roof_level":" ","survey_dat":" ","amenity":" ","brand_wiki":" ","brand_wi_1":" ","compressed":" ","fuel_diese":" ","fuel_octan":" ","fuel_oct_1":" ","shop":" ","building_1":" ","source":" ","addr_hou_1":" ","bett_and_b":" ","bettundbik":" ","air_condit":" ","capacity":" ","dog":" ","fee":" ","lit":" ","power_supp":" ","sanitary_d":" ","sanitary_1":" ","sanitary_2":" ","shower":" ","tents":" ","toilets":" ","water_poin":" ","level":" ","wikimedia_":" ","wikipedia":" ","check_da_1":" ","payment_cr":" ","organic":" ","internet_2":" ","bar":" ","payment_ca":" ","payment_de":" ","reservatio":" ","diet_veget":" ","indoor_sea":" ","name_en":" ","website_me":" ","internet_3":" ","branch":" ","cash_withd":" ","diet_halal":" ","diet_koshe":" ","toilets_ac":" ","payment_ma":" ","payment_vi":" ","contact_in":" ","ref":" ","atm":" ","descriptio":" ","drive_thro":" ","contact__1":" ","contact_mo":" ","int_name":" ","guest_hous":" ","check_da_2":" ","diet_vegan":" ","highchair":" ","takeaway":" ","official_n":" ","leisure":" ","operator_w":" ","operator_1":" ","alt_name":" ","clothes":" ","payment__1":" ","name_zh":" ","ele":" ","lgbtq_crui":" ","lgbtq_men":" ","shop_1":" ","indoor":" ","payment_co":" ","payment_no":" ","vending":" ","charging_s":" ","diet_glute":" ","diet_local":" ","internet_4":" ","image":" ","operator_t":" "}},{"type":"Feature","id":67,"geometry":{"type":"Point","coordinates":[13.052727900000001,47.784331600000002]},"properties":{"FID":67,"F_id":"node/9825214317","addr_city":" ","addr_house":"2","addr_postc":"5020","addr_stree":"Essergasse","building":" ","building_l":" ","internet_a":"wlan","internet_1":" ","name":"Mutter","phone":" ","roof_shape":" ","stars":" ","tourism":"apartment","website":" ","operator":" ","rooms":" ","wheelchair":" ","wheelcha_1":" ","addr_count":" ","beds":" ","breakfast":" ","check_date":" ","contact_em":" ","contact_fa":" ","contact_ph":" ","contact_we":" ","cuisine":" ","kitchen_ho":" ","opening_ho":" ","outdoor_se":" ","smoking":" ","toilets_wh":" ","wikidata":" ","note":" ","at_bev_add":" ","email":" ","fax":" ","government":" ","office":" ","brand":" ","roof_level":" ","survey_dat":" ","amenity":" ","brand_wiki":" ","brand_wi_1":" ","compressed":" ","fuel_diese":" ","fuel_octan":" ","fuel_oct_1":" ","shop":" ","building_1":" ","source":" ","addr_hou_1":" ","bett_and_b":" ","bettundbik":" ","air_condit":" ","capacity":" ","dog":" ","fee":" ","lit":" ","power_supp":" ","sanitary_d":" ","sanitary_1":" ","sanitary_2":" ","shower":" ","tents":" ","toilets":" ","water_poin":" ","level":" ","wikimedia_":" ","wikipedia":" ","check_da_1":" ","payment_cr":" ","organic":" ","internet_2":" ","bar":" ","payment_ca":" ","payment_de":" ","reservatio":" ","diet_veget":" ","indoor_sea":" ","name_en":" ","website_me":" ","internet_3":" ","branch":" ","cash_withd":" ","diet_halal":" ","diet_koshe":" ","toilets_ac":" ","payment_ma":" ","payment_vi":" ","contact_in":" ","ref":" ","atm":" ","descriptio":" ","drive_thro":" ","contact__1":" ","contact_mo":" ","int_name":" ","guest_hous":" ","check_da_2":" ","diet_vegan":" ","highchair":" ","takeaway":" ","official_n":" ","leisure":" ","operator_w":" ","operator_1":" ","alt_name":" ","clothes":" ","payment__1":" ","name_zh":" ","ele":" ","lgbtq_crui":" ","lgbtq_men":" ","shop_1":" ","indoor":" ","payment_co":" ","payment_no":" ","vending":" ","charging_s":" ","diet_glute":" ","diet_local":" ","internet_4":" ","image":" ","operator_t":" "}},{"type":"Feature","id":68,"geometry":{"type":"Point","coordinates":[13.029681999999999,47.7941395]},"properties":{"FID":68,"F_id":"node/9841636495","addr_city":"Salzburg","addr_house":"7","addr_postc":"5020","addr_stree":"Moosstraße","building":" ","building_l":" ","internet_a":"wlan","internet_1":"no","name":"Lebensküche","phone":"+43662 2341881","roof_shape":" ","stars":" ","tourism":" ","website":"https://moosstrasse7.at/lebenskuche-cafe/","operator":"Lebenshilfe Salzburg","rooms":" ","wheelchair":" ","wheelcha_1":" ","addr_count":" ","beds":" ","breakfast":" ","check_date":" ","contact_em":" ","contact_fa":" ","contact_ph":" ","contact_we":" ","cuisine":"international;flexitarisch;coffee_shop","kitchen_ho":" ","opening_ho":" ","outdoor_se":"yes","smoking":" ","toilets_wh":" ","wikidata":" ","note":" ","at_bev_add":" ","email":"office@moosstrasse7.at","fax":" ","government":" ","office":" ","brand":" ","roof_level":" ","survey_dat":" ","amenity":"cafe","brand_wiki":" ","brand_wi_1":" ","compressed":" ","fuel_diese":" ","fuel_octan":" ","fuel_oct_1":" ","shop":" ","building_1":" ","source":" ","addr_hou_1":" ","bett_and_b":" ","bettundbik":" ","air_condit":" ","capacity":" ","dog":" ","fee":" ","lit":" ","power_supp":" ","sanitary_d":" ","sanitary_1":" ","sanitary_2":" ","shower":" ","tents":" ","toilets":" ","water_poin":" ","level":" ","wikimedia_":" ","wikipedia":" ","check_da_1":" ","payment_cr":" ","organic":" ","internet_2":" ","bar":" ","payment_ca":" ","payment_de":" ","reservatio":" ","diet_veget":" ","indoor_sea":"yes","name_en":" ","website_me":" ","internet_3":" ","branch":" ","cash_withd":" ","diet_halal":" ","diet_koshe":" ","toilets_ac":" ","payment_ma":" ","payment_vi":" ","contact_in":" ","ref":" ","atm":" ","descriptio":" ","drive_thro":" ","contact__1":" ","contact_mo":" ","int_name":" ","guest_hous":" ","check_da_2":" ","diet_vegan":" ","highchair":" ","takeaway":"yes","official_n":" ","leisure":" ","operator_w":" ","operator_1":" ","alt_name":" ","clothes":" ","payment__1":" ","name_zh":" ","ele":" ","lgbtq_crui":" ","lgbtq_men":" ","shop_1":" ","indoor":" ","payment_co":" ","payment_no":" ","vending":" ","charging_s":" ","diet_glute":" ","diet_local":" ","internet_4":" ","image":" ","operator_t":" "}},{"type":"Feature","id":69,"geometry":{"type":"Point","coordinates":[13.044699400000001,47.803832800000002]},"properties":{"FID":69,"F_id":"node/9902674217","addr_city":"Salzburg","addr_house":"20","addr_postc":"5020","addr_stree":"Bergstraße","building":" ","building_l":" ","internet_a":"wlan","internet_1":"customers","name":"Hibiskus Koreas Küche","phone":"+43 0662 424425","roof_shape":" ","stars":" ","tourism":" ","website":"https://koreaskueche.at/","operator":" ","rooms":" ","wheelchair":"limited","wheelcha_1":" ","addr_count":" ","beds":" ","breakfast":" ","check_date":"2023-07-17","contact_em":" ","contact_fa":" ","contact_ph":" ","contact_we":" ","cuisine":"korean","kitchen_ho":" ","opening_ho":"Mo-Sa 11:00-22:30","outdoor_se":"yes","smoking":" ","toilets_wh":" ","wikidata":" ","note":" ","at_bev_add":" ","email":" ","fax":" ","government":" ","office":" ","brand":" ","roof_level":" ","survey_dat":" ","amenity":"restaurant","brand_wiki":" ","brand_wi_1":" ","compressed":" ","fuel_diese":" ","fuel_octan":" ","fuel_oct_1":" ","shop":" ","building_1":" ","source":" ","addr_hou_1":" ","bett_and_b":" ","bettundbik":" ","air_condit":" ","capacity":" ","dog":" ","fee":" ","lit":" ","power_supp":" ","sanitary_d":" ","sanitary_1":" ","sanitary_2":" ","shower":" ","tents":" ","toilets":" ","water_poin":" ","level":" ","wikimedia_":" ","wikipedia":" ","check_da_1":" ","payment_cr":" ","organic":" ","internet_2":" ","bar":" ","payment_ca":" ","payment_de":" ","reservatio":" ","diet_veget":"yes","indoor_sea":"yes","name_en":" ","website_me":" ","internet_3":" ","branch":" ","cash_withd":" ","diet_halal":" ","diet_koshe":" ","toilets_ac":" ","payment_ma":" ","payment_vi":" ","contact_in":" ","ref":" ","atm":" ","descriptio":" ","drive_thro":" ","contact__1":" ","contact_mo":" ","int_name":" ","guest_hous":" ","check_da_2":" ","diet_vegan":" ","highchair":" ","takeaway":" ","official_n":" ","leisure":" ","operator_w":" ","operator_1":" ","alt_name":" ","clothes":" ","payment__1":" ","name_zh":" ","ele":" ","lgbtq_crui":" ","lgbtq_men":" ","shop_1":" ","indoor":" ","payment_co":" ","payment_no":" ","vending":" ","charging_s":" ","diet_glute":" ","diet_local":" ","internet_4":" ","image":" ","operator_t":" "}},{"type":"Feature","id":70,"geometry":{"type":"Point","coordinates":[13.040675500000001,47.822507700000003]},"properties":{"FID":70,"F_id":"node/11528196997","addr_city":"Salzburg","addr_house":"1","addr_postc":"5020","addr_stree":"Jakob-Haringer-Straße","building":" ","building_l":" ","internet_a":"wlan","internet_1":" ","name":"EXDIGIT","phone":" ","roof_shape":" ","stars":" ","tourism":" ","website":"https://www.plus.ac.at/digital-and-analytical-sciences/fachbereiche-einrichtungen/einrichtungen/exdigit/?lang=en","operator":"Paris Lodron University of Salzburg","rooms":" ","wheelchair":"yes","wheelcha_1":" ","addr_count":" ","beds":" ","breakfast":" ","check_date":" ","contact_em":" ","contact_fa":" ","contact_ph":" ","contact_we":" ","cuisine":" ","kitchen_ho":" ","opening_ho":" ","outdoor_se":" ","smoking":" ","toilets_wh":" ","wikidata":" ","note":" ","at_bev_add":" ","email":" ","fax":" ","government":" ","office":" ","brand":" ","roof_level":" ","survey_dat":" ","amenity":"university","brand_wiki":" ","brand_wi_1":" ","compressed":" ","fuel_diese":" ","fuel_octan":" ","fuel_oct_1":" ","shop":" ","building_1":" ","source":" ","addr_hou_1":" ","bett_and_b":" ","bettundbik":" ","air_condit":" ","capacity":" ","dog":" ","fee":" ","lit":" ","power_supp":" ","sanitary_d":" ","sanitary_1":" ","sanitary_2":" ","shower":" ","tents":" ","toilets":" ","water_poin":" ","level":"2","wikimedia_":" ","wikipedia":" ","check_da_1":" ","payment_cr":" ","organic":" ","internet_2":" ","bar":" ","payment_ca":" ","payment_de":" ","reservatio":" ","diet_veget":" ","indoor_sea":" ","name_en":" ","website_me":" ","internet_3":" ","branch":" ","cash_withd":" ","diet_halal":" ","diet_koshe":" ","toilets_ac":" ","payment_ma":" ","payment_vi":" ","contact_in":" ","ref":" ","atm":" ","descriptio":"Excellence in Digital Sciences and Interdisciplinary Technologies Initiative at the Paris Lodron University of Salzburg","drive_thro":" ","contact__1":" ","contact_mo":" ","int_name":" ","guest_hous":" ","check_da_2":" ","diet_vegan":" ","highchair":" ","takeaway":" ","official_n":" ","leisure":" ","operator_w":" ","operator_1":" ","alt_name":" ","clothes":" ","payment__1":" ","name_zh":" ","ele":" ","lgbtq_crui":" ","lgbtq_men":" ","shop_1":" ","indoor":" ","payment_co":" ","payment_no":" ","vending":" ","charging_s":" ","diet_glute":" ","diet_local":" ","internet_4":" ","image":" ","operator_t":"university"}},{"type":"Feature","id":71,"geometry":{"type":"Point","coordinates":[12.990899799999999,47.8322973]},"properties":{"FID":71,"F_id":"node/12023205783","addr_city":"Salzburg","addr_house":"65","addr_postc":"5020","addr_stree":"Saalachstraße","building":" ","building_l":" ","internet_a":"wlan","internet_1":" ","name":"City Villa Riva","phone":"+43 664 4250025","roof_shape":" ","stars":" ","tourism":"chalet","website":"https://www.holidaysun.at/de/chalets/city-villa-riva/","operator":" ","rooms":" ","wheelchair":" ","wheelcha_1":" ","addr_count":"AT","beds":" ","breakfast":" ","check_date":"2024-06-30","contact_em":" ","contact_fa":" ","contact_ph":" ","contact_we":" ","cuisine":" ","kitchen_ho":" ","opening_ho":" ","outdoor_se":" ","smoking":" ","toilets_wh":" ","wikidata":" ","note":" ","at_bev_add":" ","email":" ","fax":" ","government":" ","office":" ","brand":" ","roof_level":" ","survey_dat":" ","amenity":" ","brand_wiki":" ","brand_wi_1":" ","compressed":" ","fuel_diese":" ","fuel_octan":" ","fuel_oct_1":" ","shop":" ","building_1":" ","source":" ","addr_hou_1":" ","bett_and_b":" ","bettundbik":" ","air_condit":" ","capacity":" ","dog":" ","fee":" ","lit":" ","power_supp":" ","sanitary_d":" ","sanitary_1":" ","sanitary_2":" ","shower":" ","tents":" ","toilets":" ","water_poin":" ","level":" ","wikimedia_":" ","wikipedia":" ","check_da_1":" ","payment_cr":" ","organic":" ","internet_2":" ","bar":" ","payment_ca":" ","payment_de":" ","reservatio":" ","diet_veget":" ","indoor_sea":" ","name_en":" ","website_me":" ","internet_3":" ","branch":" ","cash_withd":" ","diet_halal":" ","diet_koshe":" ","toilets_ac":" ","payment_ma":" ","payment_vi":" ","contact_in":"holidaysun.at","ref":" ","atm":" ","descriptio":" ","drive_thro":" ","contact__1":"holidaysun.at","contact_mo":" ","int_name":" ","guest_hous":" ","check_da_2":" ","diet_vegan":" ","highchair":" ","takeaway":" ","official_n":" ","leisure":" ","operator_w":" ","operator_1":" ","alt_name":" ","clothes":" ","payment__1":" ","name_zh":" ","ele":" ","lgbtq_crui":" ","lgbtq_men":" ","shop_1":" ","indoor":" ","payment_co":" ","payment_no":" ","vending":" ","charging_s":" ","diet_glute":" ","diet_local":" ","internet_4":" ","image":" ","operator_t":" "}}]}